id;categoryName;mainLocale;classifications-it;classifications-de;classifications-en;name;address-it;address-de;address-en;phone;urlPage;email;timetable-it;timetable-de;timetable-en;closingDays-it;closingDays-de;closingDays-en;prices-it;prices-de;prices-en;Equipment-it;Equipment-de;Equipment-en;pictureUrl;ShortDescription-it;ShortDescription-de;ShortDescription-en;pictureWidth;pictureHeight;latitude;longitude;lastModificationDate;status
ristorazione.1000;ristorazione;it;"Ristorante; Osteria";"Restaurant; Osteria";"Restaurant; Osteria";A LE DUE SPADE;Via Don Arcangelo Rizzi 11, Trento;Via Don Arcangelo Rizzi, 11, Trient, Italien;Via Don Arcangelo Rizzi, 11, Trento, Italy;0461/234343;http://www.leduespade.com;info@leduespade.com;12.00 - 14.00/ 19.30 - 22.00;12.00 - 14.00 / 19.30 - 22.00 Uhr;12noon - 2pm / 7.30pm - 10pm;dom. e lun. a pranzo;Sonntag und Montag zu Mittag;Sun. and Mon. at lunchtime;40;40;40;"Rampa di accesso; Ingresso con gradini; Servizi igienici dedicati;";"Zufahrtsrampe; Eingang mit Stufen; behindertengerechte Toiletten;";"Access ramp; entrance with steps; disabled toilets;";a_le_due_spade.jpg;;;;0;224;46.06703;11.120212;23/05/2014 12:00 AM +0100;1
ristorazione.1001;ristorazione;it;Ristorante;Restaurant;Restaurant;AI TRE GAROFANI;Via Mazzini 33, Trento;Via Mazzini, 33, Trient, Italien;Via Mazzini, 33, Trento, Italy;0461/237543;http://www.aitregarofani.com;Tre.garofani@libero.it;12.30 – 14.00/ 19.30 22.00;12.30 – 14.00/ 19.30 22.00 Uhr;12.30pm – 2.00pm / 7.30pm - 10pm;domenica;Sonntag;Sunday;40;40;40;"Rampa di accesso;";"Zufahrtsrampe;";"Access ramp;";ai_tre_garofani.jpg;Dal 1275 Locanda del gusto. Locale storico in pieno centro città, a due passi da un comodissimo parcheggio interrato. La storia di questo locale affonda le sue radici nel lontano 13° secolo, ora che siamo nel 21°, la gestione è portata avanti da Giovanna Linardi, Chef-patronne e da suo marito il sommelier Niko Marzari. Il ristorante è intimo e raffinato, adeguato a pranzi e cene di lavoro cosÃ¬ come per piacevoli serate di coppia. Giovanna ha sposato un concetto chiaro: soltanto con ingredienti eccellenti si riesce ad ottenere piatti che soddisfino appieno la clientela, sempre più  attenta.;Seit 1275 Locanda del gusto. Mitten im Zentrum gelegenes historisches Lokal, nur wenige Schritte von einer Tiefgarage entfernt. Die Wurzeln dieses Lokals gehen auf das 14. Jh. zurück. Heute, im 21. Jh., steht es unter der Leitung der Chef-Patronne Giovanna Linardi und ihres Mannes, des Sommeliers Niko Marzari. Das intime und raffinierte Restaurant eignet sich ebenso für Arbeitsessen wie für angenehme Abende zu Zweit. Giovanna verfolgt ein klares Konzept: Gerichte, die bei den heute immer anspruchsvolleren Gästen auf volle Zufriedenheit stoßen, lassen sich ausschließlich mit herausragenden Zutaten herstellen.;"""Locanda del gusto"" (Gourmet Tavern) since 1275. A historic restaurant in the very heart of town, a short walk from a convenient underground car park. The tale of this restaurant has its roots in the far thirteenth century, and now that we are in the 21st, it is managed by Giovanna Linardi, Chef-patronne, and by her sommelier husband, Niko Marzari. The restaurant offers an intimate and elegant atmosphere suited to business lunches or dinners as well as pleasant evenings with your loved one. Giovanna embraces a clear concept: only with premium ingredients can one create dishes that fully satisfy ever more demanding customers.";0;254;46.065705;11.123024;28/05/2014 12:00 AM +0100;1
ristorazione.1002;ristorazione;it;Ristorante;Restaurant;Restaurant;AI VICOLI;Piazza S. Teresa Verzeri 1, Trento;Piazza S. Teresa Verzeri, 1, Trient, Italien;Piazza S. Teresa Verzeri, 1, Trento, Italy;0461/260673;http://www.aivicoli.it;info@aivicoli.it;12.00 - 14.30/ 19.00 - 22.30 (cucina) 11,30-14,30/18,30-24,00 (wine bar);12.00 - 14.30/ 19.00 - 22.30 Uhr (Küche) 11,30-14,30/18,30-24,00 Uhr (Wine Bar);12noon-2.30pm / 7pm-10.30pm (restaurant) 11.30am-2.30pm / 6.30pm-12midnight (wine bar);domenica;Sonntag;Sunday;25 - 45;25 - 45;25 - 45;"Rampa di accesso; Piattaforma elevatrice; Ascensore; Servizi igienici dedicati;";"Zufahrtsrampe; Hebefläche; Aufzug, behindertengerechte Toiletten;";"Access ramp; platform lift; lift; disabled toilets;";ai_vicoli.jpg;;;;0;214;46.067561;11.120293;23/05/2014 12:00 AM +0100;1
ristorazione.1003;ristorazione;it;"Ristorante; Pizzeria";"Restaurant; Pizzeria";"Restaurant; Pizzeria";AL CASTELLO;via Bernardo Clesio 10, Trento;via Bernardo Clesio, 10, Trient, Italien;via Bernardo Clesio, 10, Trento, Italy;0461/238785;;info@alcastellotrento.com;;;;;;;;;;;;;al_castello.jpg;Specialità indiane;Indische Spezialitäten;Indian specialities;0;102;46.070201;11.127042;27/05/2014 12:00 AM +0100;1
ristorazione.1004;ristorazione;it;Trattoria;Gastwirtschaft;Trattoria (family restaurant);AL MERCATO;Piazza G. Garzetti 15, Trento;Piazza G. Garzetti, 15, Trient, Italien;Piazza G. Garzetti, 15, Trento, Italy;0461/987223;;trattoriaalmercato@gmail.it;06.30 - 22.30;06.30 - 22.30 Uhr;6.30am - 10.30pm;domenica;Sonntag;Sunday;15 - 20;15 - 20;15 - 20;"Rampa di accesso; Piattaforma elevatrice; Servizi igienici dedicati;";"Zufahrtsrampe; Hebefläche; behindertengerechte Toiletten;";"Access ramp; platform lift; disabled toilets;";al_mercato.jpg;;;;0;213;46.065914;11.123861;23/05/2014 12:00 AM +0100;1
ristorazione.1005;ristorazione;it;"Ristorante; Pizzeria";"Restaurant; Pizzeria";"Restaurant; Pizzeria";AL NUOVO FARO;Via Brescia 45, Trento;Via Brescia, 45, Trient, Italien;Via Brescia, 45, Trento, Italy;0461/263911;;alnuovofaro@yahoo.it;10.00 - 22.00;10:00 - 22:00 Uhr;10am - 10pm;lunedì;Montag;Monday;12 (bibite escluse);12 (außer Getränke);12 (drinks not included);"Parcheggio; Servizi igienici dedicati;";"Parkplatz; behindertengerechte Toiletten;";"Car park, disabled toilets;";al_nuovo_faro.jpg;;;;0;240;46.070592;11.111702;23/05/2014 12:00 AM +0100;1
ristorazione.1006;ristorazione;it;Trattoria;Gastwirtschaft;Trattoria (family restaurant);AL TINO;Via S. Trinità 10, Trento;Via S. Trinità , 10, Trient, Italien;Via S. Trinità, 10, Trento, Italy;0461/984109;;;11.30 - 14.30/ 18.30 - 21.30;11:30 - 14:30 / 18:30 - 21:30 Uhr;11.30am - 2.30pm/ 6.30pm - 9.30pm;domenica;Sonntag;Sunday;;;;"Ingresso con gradini; Servizi igienici dedicati;";"Eingang mit Stufen; behindertengerechte Toiletten;";"Entrance with steps; disabled toilets;";a_tino.jpg;;;;0;186;46.066189;11.122989;27/05/2014 12:00 AM +0100;1
ristorazione.1007;ristorazione;it;Ristorante;Restaurant;Restaurant;AL VO';Vicolo del Vò 11, Trento, Italia;Vicolo del Và², 11, Trient, Italien;Vicolo del Vò, 11, Trento, Italy;0461/985374;http://www.ristorantealvo.it;info@ristorantealvo.it;11.00 - 14.30 (la sera per gruppi solo su prenotazione);11.00-14.30 Uhr (abends für Gruppen, nur nach Reservierung);11am - 2.30pm (in the evening only for groups, booking required);domenica (aperto per manifestazioni o per gurppi prenotati);Sonntag (für Veranstaltungen oder reservierte Gruppen geöffnet);Sunday (open for special events or booked groups);15 - 25;15 - 25;15 - 25;;;;al_vo.jpg;Nel 1345 Enrico apriva la più  antica osteria di Trento col nome di AD SIGNUM ROTAE. Oggi la famiglia Antoniolli continua questa tradizione di cucina e cortesia nel cuore del centro storico, in tre accoglienti sale a volta. Il Ristorante al Vo' è un luogo dove l'amore per la cucina di territorio esprime in una gastronomia moderna ma genuina, che vuole valorizzare prodotti e produttori locali, con particolare attenzione al TRENTODOC.;1345 eröffnete Enrico die älteste Osteria Trients: AD SIGNUM ROTAE. Heute führt Familie Antoniolli die traditionell gastfreundliche Bewirtung in drei gemütlichen Sälen mit Deckengewölben in der Altstadt-Osteria weiter.  Im Restaurant Al VÒ äußert sich die Vorliebe für die hiesige Küche in Form einer modernen, aber ursprünglichen Gastronomie, in deren Mittelpunkt die Valorisierung lokaler Produkte steht. Ein besonderes Augenmerk gilt in diesem Zusammenhang dem TRENTODOC Spumante.;In 1345, Enrico opened the oldest osteria  in Trento and called it AD SIGNUM ROTAE. Today, in the very heart of the historic town centre, the Antoniolli family continues this tradition of good food and refined service in three welcoming vaulted rooms. The Restaurant al Vò is a place where the love for local dishes is expressed through a modern yet natural cuisine that focuses on local produce and producers, especially on TRENTODOC spumante.;1;427;46.070782;11.123981;23/05/2014 12:00 AM +0100;1
ristorazione.1008;ristorazione;it;Ristorante;Restaurant;Restaurant;AL VOLT;Via Santa Croce, 16, Trento;Via Santa Croce, 16, Trient, Italien;Via Santa Croce, 16, Trento, Italy;0461/983776;http://www.tienne.it/alvolt;Trattoria_al_volt@yahoo.it;08.00 - 14.00/ 18.00 - 22.00;08:00 - 14:00/ 18:00 - 22:00 Uhr;8am - 2pm/ 6pm - 10pm;giovedì e domenica sera;Donnerstag und Sonntag Abend;Thursday and Sunday evening;24;24;24;"Parcheggio; Ingresso con gradini; Servizi igienici dedicati;";"Parkplatz; Eingang mit Stufen; behindertengerechte Toiletten;";"Car park; entrance with steps; disabled toilets;";volt.jpg;;;;0;186;46.064537;11.12328;23/05/2014 12:00 AM +0100;1
ristorazione.1009;ristorazione;it;"Ristorante; Pizzeria";"Restaurant; Pizzeria";"Restaurant; Pizzeria";AL 77;Via Giuseppe Verdi 77, Trento;Via Giuseppe Verdi, 77, Trient, Italien;Via Giuseppe Verdi, 77, Trento, Italy;0461/237209;;pizzeria.al77@hotmail.com;12.00 - 15.00/ 18.00 - 24.00;12.00 - 15:00/ 18:00 - 24.00 Uhr;12noon - 3pm/ 6pm - 12midnight;domenica (novembre, dicembre, gennaio sempre aperti);Sonntag (November, Dezember, Januar immer geöffnet);Sunday (November, December, January always open);pizza 10 ristorante 18;Pizza 10 - Restaurant 18;pizza 10, restaurant 18;"Ingresso con gradini; Servizi igienici dedicati;";"Eingang mit Stufen; behindertengerechte Toiletten;";"Entrance with steps; disabled toilets;";77.jpg;;;;0;240;46.066922;11.120658;23/05/2014 12:00 AM +0100;1
ristorazione.1010;ristorazione;it;"Ristorante; Pizzeria";"Restaurant; Pizzeria";"Restaurant; Pizzeria";ALLA GROTTA;Vicolo S. Marco 6, Trento;Vicolo S. Marco, 6, Trient, Italien;Vicolo S. Marco, 6, Trento, Italy;0461/987197;;grotta1@yahoo.it;12.00 - 15.00/ 18.30 - 24.00;12.00 - 15:00/ 18:30 - 24.00 Uhr;12noon - 3pm/ 6.30pm - 12midnight;domenica;Sonntag;Sunday;11;11;11;"Rampa di accesso; Servizi igienici dedicati;";"Zufahrtsrampe; behindertengerechte Toiletten;";"Access ramp; disabled toilets;";alla_grotta.jpg;;;;0;240;46.069837;11.12551;23/05/2014 12:00 AM +0100;1
ristorazione.1011;ristorazione;it;"Ristorante; Pizzeria";"Restaurant; Pizzeria";"Restaurant; Pizzeria";ALLA MOSTRA;Piazza della Mostra 13, Trento;Piazza della Mostra, 13, Trient, Italien;Piazza della Mostra, 13, Trento, Italy;0461/230787;http://www.allamostra.it;info@allamostra.it;ristorante 12 - 14/ 19 - 22.30 pizzeria 12 - 14.30/ 19 - 23;Restaurant 12 - 14/ 19 - 22.30 Uhr - Pizzeria 12 - 14.30/ 19 - 23 Uhr;restaurant 12noon - 2pm/ 7pm- 10.30pm pizzeria 12noon - 2.30pm/ 7pm - 11pm;lunedì    ;Montag    ;Monday    ;;;;"Servizi igienici dedicati;";"Behindertengerechte Toiletten;";"Disabled toilets;";alla_mostra.jpg;;;;0;150;46.07112;11.12584;27/05/2014 12:00 AM +0100;1
ristorazione.1012;ristorazione;it;"Ristorante; Pizzeria";"Restaurant; Pizzeria";"Restaurant; Pizzeria";UVA E MENTA;Via Dietro Le Mura A 53, Trento;Via Dietro Le Mura A, 35, Trient, Italien;Via Dietro Le Mura A, 35, Trento, Italy;0461/1903162;;uvaementa@yahoo.it;12,00-14,30/19,00-23,30;12,00-14,30/ 19,00-23,30 Uhr;12noon - 2.30pm/7pm - 11.30pm;;;;15;15;15;"Piattaforma elevatrice; Ingresso con gradini; Servizi igienici dedicati;";"Hebefläche; Eingang mit Stufen; behindertengerechte Toiletten;";"Platform lift; entrance with steps; disabled toilets;";uva_menta.jpg;;;;0;0;46.065501;11.124595;23/05/2014 12:00 AM +0100;1
ristorazione.1013;ristorazione;it;Ristorante;Restaurant;Restaurant;AMERICA;Via Torre Verde 50, Trento;Via Torre Verdi, 50, Trient, Italien;Via Torre Verde, 50, Trento, Italy;0461/983010;http://www.hotelamerica.it;info@hotelamerica.it;12.00 - 14.00/ 19.30 - 21.30;12:00 - 14:00 / 19:30 - 21:30 Uhr;12noon - 2pm/ 7.30pm - 9.30pm;domenica;Sonntag;Sunday;20 - 30;20 - 30;20 - 30;"Rampa di accesso; Piattaforma elevatrice; Ascensore; Servizi igienici dedicati;";"Zufahrtsrampe; Hebefläche; Aufzug, behindertengerechte Toiletten;";"Access ramp; platform lift; lift; disabled toilets;";america.jpg;;;;0;213;46.071221;11.12401;23/05/2014 12:00 AM +0100;1
ristorazione.1014;ristorazione;it;"Ristorante; Pizzeria";"Restaurant; Pizzeria";"Restaurant; Pizzeria";ALL'ANFITEATRO;Piazzetta Anfiteatro 10, Trento;Piazzetta Anfiteatro, 10, Trient, Italien;Piazzetta Anfiteatro, 10, Trento, Italy;0461/232412;;giancarlopederzolli@virgilio.it;11.45 - 14.30;11:45 - 14:30 Uhr;11.45am - 2.30pm;sabato e domenica;Samstag und Sonntag;Saturday and Sunday;5;5;5;"Rampa di accesso; Servizi igienici dedicati;";"Zufahrtsrampe; behindertengerechte Toiletten;";"Access ramp; disabled toilets;";anfiteatro.jpg;;;;0;213;46.069379;11.124853;23/05/2014 12:00 AM +0100;0
ristorazione.1015;ristorazione;it;"Ristorante; Trattoria; Osteria tipica";"Restaurant; Gastwirtschaft; Typische Osteria";"Restaurant; Trattoria ; Typical Osteria";ANTICA TRATTORIA DUE MORI;Via S. Marco 11, Trento;Via S. Marco, 11, Trient, Italien;Via S. Marco, 11, Trento, Italy;0461/984251;http://www.ristoranteduemori.com;info@ristoranteduemori.com;da martedì a sabato 12.00 - 14.30/ 19.00 - 22.30             domenica 12.00 - 14.30/ 19.00 - 22,00;von Dienstag bis Samstag 12.00 - 14.30/ 19.00 - 22.30 Uhr            Sonntag 12.00 - 14.30/ 19.00 - 22,00 Uhr;from Tuesday to Saturday 12noon - 2.30pm/ 7pm - 10.30pm, Sunday 12noon - 2.30pm/ 7pm - 10pm;lunedì;Montag;Monday;23 - 30;23 - 30;23 - 30;;;;due_mori.jpg;;;;0;186;46.070194;11.125076;27/05/2014 12:00 AM +0100;1
ristorazione.1016;ristorazione;it;Ristorante;Restaurant;Restaurant;ANTICO POZZO;Via G. Manci 45, Trento;Via G. Manci, 45, Trient, Italien;Via G. Manci, 45, Trento, Italy;0461/263657;http://www.antico-pozzo.it;info@antico-pozzo.it;12.00 - 15.00/ 19.00 - 24.00;12.00 - 15:00/ 19:00 - 24.00 Uhr;12noon - 3pm/ 7pm - 12midnight;domenica e sabato a pranzo;Sonntag und Samstag zu Mittag;Sunday and Monday at lunchtime;30 - 35;30 - 35;30 - 35;"Rampa di accesso; Servizi igienici dedicati;";"Zufahrtsrampe; Behindertengerechte Toiletten;";"Access ramp; disabled toilets;";antico_pozzo.jpg;Il ristorante Antico Pozzo a Trento si trova all'interno di Palazzo Saracini in Via Manci, costruito attorno al 1500 da dei nobili di Siena. Il palazzo è stato ristrutturato recentemente e nel pianoterra sono stati ricavati i locali per il ristorante che mantengono l'aspetto antico coi loro alti soffitti a volta, i pavimenti in travertino, le vecchie porte dell'epoca, l'antico pozzo da cui il locale prende il nome. La cucina proposta è attenta ai prodotti, sempre freschi e di stagione, con un occhio di riguardo alla tradizione, rivista in chiave moderna.;Das Restaurant Antico Pozzo befindet sich in dem in Via Manci gelegenen Palazzo Saracini, der im 16.Jh. von Adligen aus Siena errichtet wurde. Der Palazzo wurde kürzlich saniert und im Erdgeschoss wurden die Räumlichkeiten des Restaurants vorgesehen, deren antike Optik mit hohen Gewölbedecken, Travertinsteinböden und den damaligen Türen ebenso erhalten wurde wie der antike Brunnen, dem das Restaurant seinen Namen verdankt. Die stets saisonalen, frischen Produkte finden in einer modern interpretierten Traditionsküche Anwendung.;The restaurant Antico Pozzo (Ancient Well) in Trento is located within Palazzo Saracini in Via Manci, built around 1500 by noblemen from Siena. The palazzo has been recently renovated and the restaurant premises have been created on its ground floor. These have maintained their original appearance with high vaulted ceilings, travertine flooring, original old doors and the old well from which the restaurant takes its name. The kitchen offers dishes prepared with carefully selected fresh and seasonal ingredients, focusing on traditional dishes revisited in a modern style.;0;213;46.070116;11.123554;23/05/2014 12:00 AM +0100;1
ristorazione.1017;ristorazione;it;Ristorante;Restaurant;Restaurant;"CLESIO ""GRAND HOTEL TRENTO""";Via Alfieri 1/3, Trento;Via Alfieri, 1/3, Trient, Italien;Via Alfieri, 1/3, Trento, Italy;0461/271710;http://www.grandhoteltrento.com;sinisgalli@sinisgalli.it;12.30 - 14.30/ 19.30 - 22.30;12:30 - 14:30 / 19:30 - 22:30 Uhr;12.30pm - 2.30pm / 7.30pm - 10.30pm;aperto tutti i giorni;täglich geöffnet;open every day;25 - 35;25 - 35;25 - 35;"Parcheggio; Rampa di accesso; Ascensore;";"Parkplatz, Zufahrtsrampe; Aufzug";"Car park; access ramp; lift;";clesio.jpg;;;;0;206;46.071076;11.121296;23/05/2014 12:00 AM +0100;1
ristorazione.1018;ristorazione;it;Pizzeria;Pizzeria;Pizzeria;BLUE SAX;Viale Verona 73, Trento;Viale Verona, 73, Trient, Italien;Viale Verona, 73, Trento, Italy;0461/910076;http://www.ristorantebluesax.it/il-ristorante;franceschettiam@alice.it;12.00 - 14.00/ 18.00 - 24.00;12.00 - 14:00/ 18:00 - 24.00 Uhr;12noon - 2pm/ 6pm - 12midnight;domenica a pranzo;Sonntag zu Mittag;Sunday at lunchtime;pizza 6,50-7  ristorante  7(primi) 9 (secondi);Pizza 6,50-7 - Restaurant: 7(erster Gang) ,   9 (Hauptgang);pizza 6.50-7 restaurant 7 (first course), 9 (main courses);"Rampa di accesso;";"Zufahrtsrampe;";"Access ramp;";blue_sax.jpg;;;;0;220;46.056433;11.12856;27/05/2014 12:00 AM +0100;1
ristorazione.1019;ristorazione;it;"Ristorante; Pizzeria";"Restaurant; Pizzeria";"Restaurant; Pizzeria";BOUGANVILLE;Via Petrarca 1/4, Trento;Via Petrarca, 1/4, Trient, Italien;Via Petrarca, 1/4, Trento, Italy;0461/236666;http://www.bouganvilletrento.it;info@bouganvilletrento.it;12.00 – 14.30/ 18.30 - 23.00;12:00 - 14:30 / 18:30 – 23:00 Uhr;12noon – 2.30pm/ 6.30pm - 11pm;domenica;Sonntag;Sunday;15;15;15;"Rampa di accesso; Servizi igienici dedicati;";"Zufahrtsrampe; behindertengerechte Toiletten;";"Access ramp; disabled toilets;";bouganville.png;;;;0;211;46.073275;11.124142;28/05/2014 12:00 AM +0100;1
ristorazione.1020;ristorazione;it;Specialità cinese;Chinesische Spezialitäten;Chinese specialities;CHINA TOWN;Via Brennero 260/c, Trento;Via Brennero, 260/c, Trient, Italien;Via Brennero, 260/c, Trento, Italy;0461/823186;;gianniye@gmail.com;11.00 - 15.00/ 18.00 - 23.30;11:00 - 15:00 / 18:00 - 23:30 Uhr;11am - 3pm/ 6pm - 11.30pm;;;;13 - 15;13 - 15;13 - 15;"Parcheggio;";"Parkplatz;";"Car park;";china_town.jpg;;;;0;0;46.0866;11.118467;27/05/2014 12:00 AM +0100;1
ristorazione.1021;ristorazione;it;"Ristorante; Pizzeria";"Restaurant; Pizzeria";"Restaurant; Pizzeria";CHISTE';Via delle Orne 4, Trento;Via delle Orne, 4, Trient, Italien;Via delle Orne, 4, Trento, Italy;0461/262979;;chiste-2011@live.it;12,00-14,30/19,00-23,00;12,00-14,30/ 19,00-23,00 Uhr;12noon-2.30pm/7pm-11pm;lunedì;Montag;Monday;Menù pesce escluse bevande 25,00 - Menù carne escluse bevande 20,00;Fischmenü, Getränke ausgenommen, 25.00 Euro - Fleischmenü, Getränke ausgenommen, 20.00 Euro;Fish-based menu, drinks excluded 25.00 - Meat-based menu, drinks excluded 20.00;"Rampa di accesso; Servizi igienici dedicati;";"Zufahrtsrampe; behindertengerechte Toiletten;";"Access ramp; disabled toilets;";chiste.jpg;;;;0;0;46.068936;11.121653;27/05/2014 12:00 AM +0100;1
ristorazione.1022;ristorazione;it;Cucina messicana;mexikanische Küche;Mexican food;CUEVA MAYA;Piazza Duomo 22, Trento;Piazza Duomo, 22, Trient, Italien;Piazza Duomo, 22, Trento, Italy;0461/984507;http://www.cuevamaya.it;trento@cuevamaya.it;12.00 - 14.30/ 18.30 - 23.00;12:00 - 14:30 / 18:30 - 23:00 Uhr;12noon - 2.30pm/ 6.30pm - 11pm;lunedì e mar. mattina;Montag und Dienstag früh;Monday and Tuesday morning;20 - 25 bevande incluse;20 - 25 Getränke inbegriffen;20 – 25 drinks not included;"Ingresso con gradini;";"Eingang mit Stufen;";"Entrance with steps;";cueva_maya.jpg;Il Cueva Maya di Trento è un piccolo ed accogliente locale che si affaccia su Piazza Duomo. Il menù  propone ricette tipiche messicane, tra le classiche i Nachos e le Quesadillas per antipasti, i tradizionali piatti unici come i Tacos e le Enchiladas. Ogni piatto viene proposto solo con prodotti freschi rispettando fedelmente le ricette originali. Oltre ai vini locali, il Cueva Maya propone ottimi vini cileni e argentini e potrete degustare anche diversi tipi di birre originali messicane, dolci tipici e i caffè messicani con la tequila o il rum.;Das Cueva Maya Restaurant in Trient ist ein kleines, gemütliches Lokal, direkt am Domplatz gelegen.  Auf der Speisekarte stehen typisch mexikanische Gerichte wie die Klassiker Nachos und Quesadillas als Vorspeisen und traditionelle Hauptspeisen wie Tacos und Enchiladas. Zur Herstellung aller Gerichte werden ausschließlich frische Produkte verwendet, die genau nach Originalrezept verarbeitet werden. Außer lokalen Weinen findet man im Cueva Maya auch herausragende chilenische und argentinische Weine. Außerdem werden mexikanische Originalbiere, typische Nachspeisen, mexikanischer Kaffee und Tequila oder Rum angeboten.;The Cueva Maya in Trento is a small and welcoming restaurant that looks out onto Piazza Duomo. The menu offers typical Mexican recipes such as the classic Nachos or Quesadillas as starters and traditional main courses such as Tacos or Enchiladas. Every dish is prepared with exclusively fresh ingredients, adhering faithfully to the original recipes. Apart from local wines, Cueva Maya also offers excellent Chilean and Argentine wines as well as different types of original Mexican beers, Mexican cakes and coffees with tequila or rum.;0;240;46.06709;11.12098;23/05/2014 12:00 AM +0100;1
ristorazione.1023;ristorazione;it;"Ristorante; Pizzeria";"Restaurant; Pizzeria";"Restaurant; Pizzeria";DOC;Via Milano 148, Trento;Via Milano, 148, Trient, Italien;Via Milano, 148, Trento, Italy;0461/262022;http://www.doctrento.it;info@doctrento.it;;;;domenica;Sonntag;Sunday;;;;;;;doc.jpg;;;;0;213;46.063632;11.130947;27/05/2014 12:00 AM +0100;1
ristorazione.1024;ristorazione;it;"Ristorante; Pizzeria; Self-service";"Restaurant; Pizzeria; Self-service";"Restaurant; Pizzeria; self-service";DUE GIGANTI;Via Simonino 14, Trento;Via Simonino, 14, Trient, Italien;Via Simonino, 14, Trento, Italy;0461/262730;;;12,00-14,30/18,30-22,30;12,00-14,30/18,30-22,30 Uhr;12noon-2.30pm/6.30pm-10.30pm;Ristorante aperto la domenica e non il lunedì - Pizzeria aperta il lunedì e non la domenica;Restaurant sonntags geöffnet und montags geschlossen - Pizzeria montags geöffnet und sonntags geschlossen;Restaurant open Sunday and not Monday, Pizzeria open Monday and not Sunday;9;9;9;"Rampa di accesso; Servizi igienici dedicati;";"Zufahrtsrampe; behindertengerechte Toiletten;";"Access ramp; disabled toilets;";due_giganti.jpg;;;;0;240;46.068623;11.123828;23/05/2014 12:00 AM +0100;1
ristorazione.1025;ristorazione;it;Ristorante;Restaurant;Restaurant;EURO CAFE';Via G. Segantini 27, Trento;Via G. Segantini, 27, Trient, Italien;Via G. Segantini, 27, Trento, Italy;0461/239279;;fragola.snc@alice.it;07.00 - 19.00;07:00 - 19:00 Uhr;7am - 7pm;sabato;Samstag;Saturday;primi 6,50 secondi 8,50;erster Gang 6,50 - Hauptgang 8,50;first courses 6.50, main courses 8.50;"Rampa di accesso; Servizi igienici dedicati;";"Zufahrtsrampe; behindertengerechte Toiletten;";"Access ramp; disabled toilets;";euro_caffe.jpg;;;;0;240;46.075045;11.122141;23/05/2014 12:00 AM +0100;1
ristorazione.1026;ristorazione;it;Ristorante;Restaurant;Restaurant;EVEREST;Corso Alpini 16, Trento;Corso Alpini, 14, Trient, Italien;Corso Alpini, 14, Trento, Italy;0461/825300;http://www.hoteleverest.it;info@hoteleverest.it;12.00 - 14.30/ 19.00 -21.30;12.00 - 14:30/ 19:00 -21.30 Uhr;12noon - 2.30pm/ 7pm -9.30pm;domenica sera;Sonntag Abend;Sunday evening;28;28;28;"Parcheggio; Rampa di accesso; Ascensore; Servizi igienici dedicati;";"Parkplatz; Zufahrtsrampe; Aufzug; behindertengerechte Toiletten;";"Car park; access ramp; lift; disabled toilets;";everest.jpg;270 coperti, parcheggio, cucina nazionale e regionale, possibilità buffet, cerimonie, meeting aziendali.;270 Gedecke, Parkplatz, nationale und regionale Küche, mögliche Buffets, Feierlichkeiten, Firmenmeetings.;"Seats 270 people; car park; national and regional cuisine; can be booked for buffets, receptions, business meetings.";0;149;46.078625;11.118389;23/05/2014 12:00 AM +0100;1
ristorazione.1027;ristorazione;it;Pizzeria;Pizzeria;Pizzeria;G.B.;Via S. Antonio 11/17, Trento;Via S. Antonio, 11/17, Trient, Italien;Via S. Antonio, 11/17, Trento, Italy;0461/910470;;pizzeriag.b@virgilio.it;08.00 - 14.30/ 18.00 -24.00;08:00 - 14:30/ 18:00 -24.00 Uhr;8am - 2.30pm/ 6pm - 12midnight;mercoledì;Mittwoch;Wednesday;11 (pizza, bibita, caffè);11 (Pizza, Getränk, Kaffee);11 (pizza, drink, coffee);;;;gb.jpg;;;;0;0;46.057727;11.130336;23/05/2014 12:00 AM +0100;1
ristorazione.1028;ristorazione;it;Self-service;Self-service;Self-service;GAIA;Via Maccani 128, Trento;Via Maccani, 128, Trient, Italien;Via Maccani, 128, Trento, Italy;0461/428301;http://www.risto3.it;gaia@risto3.it;11.15 - 14.00;11:15 - 14:00 Uhr;11.15am - 2pm;sabato e domenica;Samstag und Sonntag;Saturday and Sunday;10;10;10;"Parcheggio; Ascensore; Servizi igienici dedicati;";"Parkplatz, Aufzug, behindertengerechte Toiletten;";"Car park; lift; disabled toilets;";gaia.jpg;"""Gaia"" è il primo ristorante self realizzato da Risto 3. Il locale dotato di parcheggio privato, dispone di due ampie sale ristorante. Per chi desidera un ambiente riservato, il locale mette a disposizione una saletta con circa 20 posti con servizio al tavolo.";"""Gaia"" ist das erste von Risto 3 eröffnete Selfservice-Restaurant. Das Lokal verfügt über einen Privatparkplatz und zwei großräumige Restaurantsäle. Wer ein diskreteres Ambiente bevorzugt, kann sich in den kleinen Saal mit 20 Sitzmöglichkeiten und Bedienung am Tisch zurückziehen.";"""Gaia"" is the first self-service restaurant founded by Risto 3. The restaurant has a private car park and two large restaurant rooms. For those who seek a more intimate atmosphere, the restaurant also has a small room with table service that can seat about 20 people.";0;240;46.088911;11.109862;23/05/2014 12:00 AM +0100;1
ristorazione.1029;ristorazione;it;Self-service;Self-service;Self-service;GIULIA;Via Gazzoletti 15, Trento;Via Gazzoletti, 15, Trient, Italien;Via Gazzoletti, 15, Trento, Italy;0461/984752;http://www.risto3.it;giulia@risto3.it;11.45 - 14.30;11:45 - 14:30 Uhr;11.45am - 2.30pm;sabato e domenica;Samstag und Sonntag;Saturday and Sunday;10;10;10;"Piattaforma elevatrice; Servizi igienici dedicati;";"Hebefläche; behindertengerechte Toiletten;";"Platform lift; disabled toilets;";giulia.jpg;"A due passi dal Castello del Buonconsiglio, si trova il ristorante self ""Giulia"" recentemente ristrutturato con un arredo dal design moderno. Il ristorante propone una vasta scelta di proposte gastronomiche con modalità a buffet servito dallo chef.";"Nur wenige Schritte vom Schloss Buonconsiglio entfernt liegt das erst kürzlich renovierte und modern eingerichtete Selfservice-Restaurant ""Giulia"". Das vom Chef servierte Buffet bietet eine reichhaltige Auswahl.";"A short walk from Castello del Buonconsiglio, the self-service restaurant ""Giulia"" has been recently renovated with modern furnishings. The restaurant has a wide choice of food served at a buffet by the chef.";0;240;46.07187;11.122136;23/05/2014 12:00 AM +0100;1
ristorazione.1030;ristorazione;it;Self-service;Self-service;Self-service;GLENDA;Via Trener 16, Trento;Via Trener, 16, Trient, Italien;Via Trener, 16, Trento, Italy;0461/822160;http://www.risto3.it;glenda@risto3.it;11.45 - 14.30;11:45 - 14:30 Uhr;11.45am - 2.30pm;sabato e domenica;Samstag und Sonntag;Saturday and Sunday;10;10;10;"Parcheggio; Rampa di accesso; Piattaforma elevatrice; Ascensore; Servizi igienici dedicati;";"Parkplatz; Zufahrtsrampe; Hebefläche, Aufzug, behindertengerechte Toiletten;";"Car park; access ramp; platform lift; lift; disabled toilets;";glenda.jpg;"Il ristorante self ""Glenda"" si trova all'interno del Centro Commerciale a Sud di Trento ""Bren Center"". Dispone di ampio parcheggio ed è facilmente raggiungibile sia da direzione nord sia da direzione da sud.";"Das Selfservice-Restaurant ""Glenda"" liegt im Einkaufszentrum ""Bren Center"" im Norden von Trient. Es verfügt über einen großen Parkplatz und ist sowohl aus nördlicher als auch aus südlicher Richtung leicht erreichbar.";"The self-service restaurant ""Glenda"" is situated within the ""Bren Center"" shopping centre in the northern part of Trento. It has a large car park and is easy to reach both from the north and from the south of Trento.";0;240;46.093624;11.114558;23/05/2014 12:00 AM +0100;1
ristorazione.1031;ristorazione;it;"Ristorante; Pizzeria; Osteria";"Restaurant; Pizzeria; Osteria";"Restaurant; Pizzeria; Osteria";GREEN TOWER;Piazza S. Pellico 12, Trento;Piazza S. Pellico, 12, Trient, Italien;Piazza S. Pellico, 12, Trento, Italy;0461/231545;http://www.ristorantegreentower.it;info@ristorantegreentower.it;12.00 - 15.00/ 19.00 - 02.00;12:00 - 15:00 / 19:00 - 02:00 Uhr;12noon - 3pm/ 7pm - 2am;lunedì;Montag;Monday;20 - 25;20 - 25;20 - 25;"Rampa di accesso; Piattaforma elevatrice; Servizi igienici dedicati;";"Zufahrtsrampe; Hebefläche; behindertengerechte Toiletten;";"Access ramp; platform lift; disabled toilets;";green_tower.jpg;;;;0;213;46.072003;11.124526;23/05/2014 12:00 AM +0100;1
ristorazione.1032;ristorazione;it;"Ristorante; Pizzeria";"Restaurant; Pizzeria";"Restaurant; Pizzeria";GROFF;Via E. Fermi 7, Trento;Via E. Fermi, 7, Trient, Italien;Via E. Fermi, 7, Trento, Italy;0461/1920139;http://www.pizzorante.eu;info@pizzorante.eu;08,00 - 24.00;08.00 – 24.00 Uhr;8am - 12midnight;;;;pizza e bibita 12 ristorante 30-35;Pizza + Getränk 12 - Restaurant 30-35;pizza and drink 12 restaurant 30-35;"Parcheggio; Rampa di accesso; Servizi igienici dedicati;";"Parkplatz, Zufahrtsrampe; behindertengerechte Toiletten;";"Car park; access ramp; disabled toilets;";groff.jpg;;;;0;213;46.04718;11.126197;28/05/2014 12:00 AM +0100;1
ristorazione.1033;ristorazione;it;Ristorante;Restaurant;Restaurant;IL CAPPELLO;Piazzetta Bruno Lunelli 5, Trento;Piazzetta Bruno Lunelli, 5, Trient, Italien;Piazzetta Bruno Lunelli, 5, Trento, Italy;0461/235850;http://www.osteriailcappello.it;info@osteriailcappello.it;10.00 - 14.00/ 19.30 - 22.00;10:00 - 14:00 / 19:30 - 22:00 Uhr;10am - 2pm/ 7.30pm - 10pm;domenica sera e lunedì;Sonntag Abend und Montag;Sunday evening and Monday;30 - 40;30 - 40;30 - 40;"Rampa di accesso; Servizi igienici dedicati;";"Zufahrtsrampe; behindertengerechte Toiletten;";"Access ramp; disabled toilets;";cappello.jpg;;;;0;0;46.069604;11.12523;23/05/2014 12:00 AM +0100;1
ristorazione.1034;ristorazione;it;Self-service;Self-service;Self-service;IL GUSTO DELLA COOPERAZIONE;Via Segantini 10, Trento;Via Segantini, 10, Trient, Italien;Via Segantini, 10, Trento, Italy;0461/1734477;http://www.risto3.it;risto3@risto3.it;11.30 - 14.30                       ;11:30 - 14:30 Uhr                       ;11.30am - 2.30pm                       ;sabato e domenica;Samstag und Sonntag;Saturday and Sunday;10;10;10;"Parcheggio; Ascensore; Servizi igienici dedicati;";"Parkplatz, Aufzug, behindertengerechte Toiletten;";"Car park; lift; disabled toilets;";cooperazione.jpg;"Il ""Gusto della cooperazione"" prende il nome dalla sua collocazione: infatti, si trova nella storica sede della Federazione Trentina della Cooperazione. Propone un servizio a buffet. Su prenotazione, si può fruire del servizio ristorante con cameriere, in una caratteristica ed elegante sala privata.";"Der Name ""Gusto della cooperazione"" (der Geschmack der Kooperation) geht auf den Standort zurück: tatsächlich liegt dieses Restaurant im historischen Sitz der Trentiner Genossenschaftsvereinigung. Buffet-Service. Nach Reservierung steht ein eleganter Privatsaal zur Verfügung, in dem ein Restaurantservice mit Bedienung geboten wird.";"The ""Gusto della cooperazione"" (""The taste of cooperation"") takes its name from its position: in fact it is housed in the historic premises of the Federazione Trentina della Cooperazione (Trentino Federation of Cooperatives). It offers a buffet service. A characteristic and elegant private room can be booked with waiter service.";0;240;46.075168;11.122077;23/05/2014 12:00 AM +0100;1
ristorazione.1035;ristorazione;it;Osteria;Osteria;Osteria;IL LIBERTINO;Piazza Piedicastello 4/6, Trento;Piazza Piedicastello, 4/6, Trient, Italien;Piazza Piedicastello, 4/6, Trento, Italy;0461/260085;http://www.ristorantelibertino.com;libertinotn@gmail.com;12.00 - 14.30/ 19.00 - 22.30;12:00 - 14:30 / 19:00 - 22:30 Uhr;12noon - 2.30pm/ 7pm - 10.30pm;martedì;Dienstag;Tuesday;30 - 40;30 - 40;30 - 40;"Parcheggio; Rampa di accesso; Servizi igienici dedicati;";"Parkplatz, Zufahrtsrampe; behindertengerechte Toiletten;";"Car park; access ramp; disabled toilets;";libertino.jpg;"Il ristorante enologico, ""Il Libertino"" si trova in un antico edificio della piazzetta di Piedicastello, antico rione della città di Trento. Il locale si presenta caldo ed accogliente, con luci soffuse, arredamento sobrio ed elegante ed è articolato su tre salette, per un totale di 40/45 coperti circa. La cucina proposta è di tipo prevalentemente regionale, legata alle materie prime del territorio ed alla stagionalità dei prodotti, la filosofia è quella di produrre il più  possibile in casa: pane, pasta, tortelli, gnocchi, canederli, dolci. Particolare attenzione è dedicata alla carta dei vini (oltre 300 etichette).";"Das Weinrestaurant ""Il Libertino"" liegt in einem antiken Gebäude auf dem kleinen Platz von Piedicastello, einem alten Stadtviertel Trients. Das gemütliche Restaurant mit gedämmter Lichtatmosphäre, das drei Säle mit circa 40-50 Sitzplätzen umfasst, ist schlicht und elegant eingerichtet. Auf der Speisekarte stehen vorrangig lokale Gerichte mit saisonalen Produkten aus der Region. In der Philosophie des Hauses nehmen hausgemachte Produkte eine besondere Stellung ein: Brot, Tortelli, Gnocchi, Knödel, Süßspeisen und Kuchen.  Auch die Weinkarte ist sehr sorgfältig erstellt (über 300 Weine).";"The oenological restaurant ""Il Libertino"" is hosted in an old building on the small square of Piedicastello, an old quarter of Trento. The warm and welcoming restaurant is simply and elegantly furnished, with soft lighting, and is spread over three small rooms that can seat about 40/45 people. The dishes served are mainly regional, based on local products and seasonal ingredients. The philosophy followed is to home-cook as many products as possible: bread, pasta, tortelli, dumplings, canederli (typical bread dumplings) and cakes. Special care is dedicated to compiling the wine-list (over 300 labels).";0;240;46.07078;11.112298;27/05/2014 12:00 AM +0100;1
ristorazione.1036;ristorazione;it;"Ristorante; Wine Bar";"Restaurant; Wine Bar";"Ristorante; Wine Bar";IL SIMPOSIO;Via Antonio Rosmini 19, Trento;Via Antonio Rosmini, 19, Trient, Italien;Via Antonio Rosmini, 19, Trento, Italy;0461/261848;http://www.ilsimposio.net;ilsimposiotrento@gmail.com;ristorante 12.00 - 14.30/ 19.00 - 24.00;Restaurant 12.00 - 14.30/ 19:00 - 24.00 Uhr;restaurant 12noon - 2.30pm/ 7pm - 12 midnight;domenica;Sonntag;Sunday;8 - 13;8 - 13;8 - 13;;;;simposio.jpg;;;;0;168;46.068292;11.118877;27/05/2014 12:00 AM +0100;1
ristorazione.1037;ristorazione;it;Self-service;Self-service;Self-service;ISOTTA;Via Marinai d'Italia 30, Trento;Via Marinai d'Italia 32, Trient, Italien;Via Marinai d'Italy 32, Trento, Italy;0461/1734471;http://www.risto3.it;isotta@risto3.it;11.30 - 14.30;11:30 - 14:30 Uhr;11.30am - 2.30pm;sabato e domenica;Samstag und Sonntag;Saturday and Sunday;10;10;10;"Parcheggio; Servizi igienici dedicati;";"Parkplatz; behindertengerechte Toiletten;";"Car park, disabled toilets;";isotta.jpg;"Moderno ristorante self situato nella zona di Trento sud presso il complesso ""al Marinaio"". La cucina si caratterizza per le proposte culinarie in un'ottica salutista, ampia scelta di verdure, pizza cotta al momento. La modalità di servizio è a buffet servito dallo chef.";"Modernes Selfservice-Restaurant nahe des im südlichen Teil von Trient gelegenen Gebäudekomplexes ""al Marinaio"".  Die Küche bietet gesund zubereitete Speisen, eine große Gemüseauswahl und frisch gebackene Pizza. Die Gäste bedienen sich an einem vom Chef servierten Buffet.";"Modern self-service restaurant in the southern part of Trento in the ""Al Marinaio"" complex. The cuisine is characterised by wellness-oriented options, a wide choice of vegetables and pizza baked on demand. Food is served at a buffet by the chef.";0;188;46.035169;11.126473;23/05/2014 12:00 AM +0100;1
ristorazione.1038;ristorazione;it;Ristorante;Restaurant;Restaurant;L'ALTRO ISOTTA;Via Marinai d'Italia 30, Trento;Via Marinai d'Italia 32, Trient, Italien;Via Marinai d'Italy 32, Trento, Italy;0461/1734471;http://www.risto3.it;laltro@risto3.it;18,30-23,00;18,30-23,00 Uhr;6.30pm -11pm;domenica, lunedì, martedì;Sonntag, Montag, Dienstag;Sunday, Monday, Tuesday;10;10;10;"Parcheggio; Servizi igienici dedicati;";"Parkplatz; behindertengerechte Toiletten;";"Car park, disabled toilets;";altro_isotta.jpg;Il ristorante, con apertura serale, è caratterizzato da ampi spazi in una moderna concezione di design, ambiente informale. Adatto a riunioni di famiglia, incontri con gli amici, cene aziendali.;Dieses abends geöffnete und großzügig geschnittene Restaurant zeichnet sich durch ein modernes Design und eine informelle Atmosphäre aus. Für Familienfeiern, Treffen mit Freunden, Firmenessen geeignet.;The restaurant, open in the evenings, has spacious rooms with a modern design imprint and an informal atmosphere. Suited for family reunions, evenings with friends, company dinners.;0;213;46.037359;11.124555;23/05/2014 12:00 AM +0100;1
ristorazione.1039;ristorazione;it;Ristorante;Restaurant;Restaurant;LA CANTINOTA;Via S. Marco 22/24, Trento;Via S. Marco, 22/24, Trient, Italien;Via S. Marco, 22/24, Trento, Italy;0461/238527;http://www.cantinota.editarea.com;cantinota@hotmail.it;12.00 - 15.00/ 19.00 - 23.00;12:00 - 15:00 / 19:00 - 23:00 Uhr;12noon - 3pm/ 7pm - 11pm;giovedì;Donnerstag;Thursday;25;25;25;"Rampa di accesso; Servizi igienici dedicati;";"Zufahrtsrampe; behindertengerechte Toiletten;";"Access ramp; disabled toilets;";cantinota.jpg;;;;0;0;46.07003;11.125029;23/05/2014 12:00 AM +0100;1
ristorazione.1040;ristorazione;it;"Ristorante; Pizzeria";"Restaurant; Pizzeria";"Restaurant; Pizzeria";LA POSADA;Largo G. Carducci 24, Trento;Largo G. Carducci, 24, Trient, Italien;Largo G. Carducci, 24, Trento, Italy;0461/262694;;roberto_ciervo@excite.it;12.00 14.00/ 19.00 - 23.00;12.00 - 14.00/ 19.00 - 23.00 Uhr;12noon- 2pm/ 7pm - 11pm;domenica;Sonntag;Sunday;15;15;15;"Rampa di accesso;";"Zufahrtsrampe;";"Access ramp;";posada.jpg;;;;0;240;46.068394;11.124459;23/05/2014 12:00 AM +0100;1
ristorazione.1041;ristorazione;it;Ristorante;Restaurant;Restaurant;LA STUA;Via dei Mille 20, Trento;Via dei Mille, 20, Trient, Italien;Via dei Mille, 20, Trento, Italy;0461/915879;;pisonithomas@virgilio.it;07.30 - 19.00  (ristorazione solo a pranzo);07.30 - 19.00 Uhr (nur zum Mittagstisch geöffnet);7.30am - 7pm (restaurant only at lunchtime);domenica - mesi nov. Dic. Aperto tutti ti giorni;Sonntag - November und Dezember Täglich geöffnet;Sunday - month of Nov. Dec. open every day;dai 20 ai 30;von 20 bis 30;from 20 to 30;"Ingresso con gradini;";"Eingang mit Stufen;";"Entrance with steps;";stua.jpg;;;;0;240;46.062366;11.127994;23/05/2014 12:00 AM +0100;1
ristorazione.1042;ristorazione;it;Ristorante;Restaurant;Restaurant;LO SCRIGNO DEL DUOMO;Piazza del Duomo 29, Trento;Piazza del Duomo, 29, Trient, Italien;Piazza del Duomo, 29, Trento, Italy;0461/220030;http://www.scrignodelduomo.com;info@scrignodelduomo.com;11.00 - 15.30/ 18.00 - 24.00;11:00 - 15:30/ 18:00 - 24.00 Uhr;11am - 3.30pm/ 6pm - 12midnight;;;;80;80;80;"Rampa di accesso; Servizi igienici dedicati;";"Zufahrtsrampe; behindertengerechte Toiletten;";"Access ramp; disabled toilets;";scrigno.jpg;;;;0;212;46.067432;11.121012;23/05/2014 12:00 AM +0100;1
ristorazione.1043;ristorazione;it;"Pizzeria; Self-service";"Pizzeria; Self-service";"Pizzeria; self-service";MAGNETE;Passaggio B. Disertori 26, Trento;Passaggio B. Disertori, 26, Trient, Italien;Passaggio B. Disertori, 26, Trento, Italy;0461/420196;;fabriziolibardi@hotmail.com;11.30 - 16.30;11:30 - 16:30 Uhr;11.30am - 4.30pm;domenica;Sonntag;Sunday;10;10;10;"Parcheggio; Rampa di accesso; Servizi igienici dedicati;";"Parkplatz, Zufahrtsrampe; behindertengerechte Toiletten;";"Car park; access ramp; disabled toilets;";magnete.jpg;;;;0;213;46.090667;11.115089;23/05/2014 12:00 AM +0100;1
ristorazione.1044;ristorazione;it;Ristorante;Restaurant;Restaurant;MASO FINISTERRE;Via S.S. Cosma e Damiano 6, Trento;Via S.S. Cosma e Damiano, 6, Trient, Italien;Via S.S. Cosma e Damiano, 6, Trento, Italy;0461/825752;http://www.masofinisterre.it;masofinisterre@yahoo.it;12.00 14.00/ 19.00 - 22.00;12.00 - 14.00/ 19.00 - 22:00 Uhr;12noon - 2pm/ 7pm - 10pm;lunedì;Montag;Monday;20 - 25;20 - 25;20 - 25;"Parcheggio; Rampa di accesso; Servizi igienici dedicati;";"Parkplatz, Zufahrtsrampe; behindertengerechte Toiletten;";"Car park; access ramp; disabled toilets;";finisterre.jpg;;;;0;240;46.083732;11.099655;23/05/2014 12:00 AM +0100;1
ristorazione.1045;ristorazione;it;"Ristorante; Pizzeria";"Restaurant; Pizzeria";"Restaurant; Pizzeria";NIKY'S RESTAURANT;Via S. Pio X 29, Trento;Via S. Pio X, 29, Trient, Italien;Via S. Pio X, 29, Trento, Italy;0461/390828;http://www.nikys.it;info@nikys.it;dal lunedì al sabato 12-14.30/18.30-23 domenica (da ottobre a maggio) 18.30 - 22.00;von Montag bis Samstag 12-14.30/18.30-23 Uhr - Sonntag (von Oktober bis Mai) 18.30 - 22.00 Uhr;from Monday to Saturday 12noon - 2.30pm/6.30pm - 11pm, Sunday (from October to May) 6.30pm - 10pm;domenica (solo da giugno a ottobre);Sonntag (nur von Juni bis Oktober);Sunday (only from June to October);pizze 5 - 8,50 ristorante 10 -30;Pizza 5 - 8,50 - Restaurant 10-30;pizza 5 - 8.50 restaurant 10-30;"Servizi igienici dedicati;";"Behindertengerechte Toiletten;";"Disabled toilets;";niky.jpg;;;;0;0;46.05602;11.120221;23/05/2014 12:00 AM +0100;1
ristorazione.1046;ristorazione;it;Ristorante;Restaurant;Restaurant;NUOVA CASTELLI;Piazza Centa 11, Trento;Piazza Centa, 11, Trient, Italien;Piazza Centa, 11, Trento, Italy;0461/827079;;castellife@gmail.com;12.00 - 14.30/ 18.30 - 23.30;12:00 - 14:30 / 18:30 - 23:30 Uhr;12noon - 2.30pm/ 6.30pm - 11.30pm;sabato e domenica a pranzo;Samstag und Sonntag zu Mittag;Saturday and Sunday at lunchtime;15 - 30;15 - 30;15 - 30;;;;nuova_castelli.jpg;;;;0;213;46.076167;11.123882;23/05/2014 12:00 AM +0100;1
ristorazione.1047;ristorazione;it;"Ristorante; Pizzeria";"Restaurant; Pizzeria";"Restaurant; Pizzeria";VESUVIO;Via Malvasia 103, Trento;Via Malvasia, 103, Trient, Italien;Via Malvasia, 103, Trento, Italy;0461/987303;;alvesuvio@yahoo.it;12.00 - 14.30/ 18.30 - 02.00;12:00 - 14:30 / 18:30 - 02:00 Uhr;12noon - 2.30pm/ 6.30pm - 2am;nessuno;Donnerstag und Samstag zu Mittag;Thursday and Saturday at lunchtime;pizza 6 ristorante 13 pesce 25;Pizza 6 - Restaurant 13 - Fisch 25;pizza 6, restaurant 13, fish 25;"Parcheggio;";"Parkplatz;";"Car park;";vesuvio.jpg;;;;0;240;46.075192;11.125121;23/05/2014 12:00 AM +0100;1
ristorazione.1048;ristorazione;it;"Ristorante; Pizzeria";"Restaurant; Pizzeria";"Restaurant; Pizzeria";OLD BAR&FOOD;Via Roggia Grande  8, Trento;Via Roggia Grande, 8, Trient, Italien;Via Roggia Grande, 8, Trento, Italy;0461/263263;http://www.oldbar.it;info@oldbar.it;11.00 - 15.00/ 19.00 - 24.00;11:00 - 15:00/ 19:00 - 24.00 Uhr;11am - 3pm/ 7pm - 12midnight;domenica;Sonntag;Sunday;menù con 4 portate 28 €;4-Gängemenü für 28 Euro,;menu with 4 courses 28;"Rampa di accesso; Ingresso con gradini; Servizi igienici dedicati;";"Zufahrtsrampe; Eingang mit Stufen; behindertengerechte Toiletten;";"Access ramp; entrance with steps; disabled toilets;";old.jpg;;;;3;320;46.067477;11.124493;28/05/2014 12:00 AM +0100;1
ristorazione.1049;ristorazione;it;Ristorante;Restaurant;Restaurant;OLYMPIC RESTAURANT;Via R. da Sanseverino 125, Trento;Via R. da Sanseverino, 125, Trient, Italien;Via R. da Sanseverino, 125, Trento, Italy;0461/391215;http://www.hotelsportingtrento.com;info@hotelsportingtrento.com;12.00 - 14.00/ 19.00 - 22.00;12:00 - 14:00 / 19:00 - 22:00 Uhr;12noon - 2pm/ 7pm - 10pm;domenica;Sonntag;Sunday;a partire da 25€ bevande escluse;ab 25 Euro, Getränke ausgenommen;from 25 €, drinks not included;"Parcheggio; Ascensore; Servizi igienici dedicati;";"Parkplatz, Aufzug, behindertengerechte Toiletten;";"Car park; lift; disabled toilets;";olympic.jpg;;;;0;223;46.051124;11.112327;27/05/2014 12:00 AM +0100;1
ristorazione.1050;ristorazione;it;Specialità orientali;Orientalische Spezialitäten;Oriental specialities;ORIENT;Via Giovanni Zanella 3, Trento;Via Giovanni Zanella, 3, Trient, Italien;Via Giovanni Zanella, 3, Trento, Italy;0461/234435;;;;;;;;;;;;;;;orient.jpg;;;;0;0;46.067408;11.117869;27/05/2014 12:00 AM +0100;1
ristorazione.1051;ristorazione;it;Trattoria;Gastwirtschaft;Trattoria;ORSO GRIGIO;Via degli Orti 19, Trento;Via degli Orti, 19, Trient, Italien;Via degli Orti, 19, Trento, Italy;0461/984400;;info@orsogrigiotrento.com;12.00 - 14.00/ 19.30 - 22.00;12:00 - 14:00/ 19:30 - 22:00 Uhr;12noon - 2pm / 7.30pm - 10pm;domenica;Sonntag;Sunday;25 - 35;25 - 35;25 - 35;"Rampa di accesso; Servizi igienici dedicati;";"Zufahrtsrampe; behindertengerechte Toiletten;";"Access ramp; disabled toilets;";orso_grigio.jpg;;;;0;105;46.065564;11.122434;23/05/2014 12:00 AM +0100;1
ristorazione.1052;ristorazione;it;Trattoria;Gastwirtschaft;Trattoria (family restaurant);OSTERIA VINERIA S. MARTINO;Via S. Martino 42, Trento;Via S. Martino, 42, Trient, Italien;Via S. Martino, 42, Trento, Italy;0461/263975;;;12.00 - 21.00;12:00 - 21:00 Uhr;12noon - 9pm;sabato a pranzo e domenica;Samstag zu Mittag und Sonntag;Saturday at lunchtime and Sunday;20 - 25;20 - 25;20 - 25;"Rampa di accesso; Servizi igienici dedicati;";"Zufahrtsrampe; behindertengerechte Toiletten;";"Access ramp; disabled toilets;";san_martino.jpg;;;;0;240;46.073188;11.125336;23/05/2014 12:00 AM +0100;1
ristorazione.1053;ristorazione;it;Ristorante;Restaurant;Restaurant;PATELLI;Via Dietro Le Mura A 1/5, Trento;Via Dietro Le Mura A, 1/5, Trient, Italien;Via Dietro Le Mura A, 1/5, Trento, Italy;0461/235236;;ristopat@tiscali.it;12.00 - 14.15/ 19.00 - 22.30;12:00 - 14:15 / 19:00 - 22:30 Uhr;12noon - 2.15pm/ 7pm - 10.30pm;sabato a pranzo e domenica;Samstag zu Mittag und Sonntag;Saturday at lunchtime and Sunday;20 - 35;20 - 35;20 - 35;"Rampa di accesso; Piattaforma elevatrice; Ingresso con gradini; Servizi igienici dedicati;";"Zufahrtsrampe; Hebefläche; Eingang mit Stufen; behindertengerechte Toiletten;";"Access ramp; platform lift; entrance with steps; disabled toilets;";patelli.jpg;;;;1;478;46.065417;11.123131;23/05/2014 12:00 AM +0100;1
ristorazione.1054;ristorazione;it;"Ristorante; Pizzeria";"Restaurant; Pizzeria";"Restaurant; Pizzeria";BIRRERIA PEDAVENA;Via Santa Croce 15, Trento;Via Santa Croce, 15, Trient, Italien;Via Santa Croce, 15, Trento, Italy;0461/986255;http://www.birreriapedavena.com;info@birreriapedavena.com;;;;martedì;Dienstag;Tuesday;primo 6,50 piatto tipico 11,50;erster Gang 6,50 - typische Platte 11,50;first course 6.50, local dish 11.50;"Rampa di accesso; Servizi igienici dedicati;";"Zufahrtsrampe; behindertengerechte Toiletten;";"Access ramp; disabled toilets;";pedavena.jpg;;;;0;240;46.064685;11.123461;23/05/2014 12:00 AM +0100;1
ristorazione.1055;ristorazione;it;"Ristorante; Pizzeria";"Restaurant; Pizzeria";"Restaurant; Pizzeria";PETRARCA;Via Petrarca 4, Trento;Via Petrarca, 4, Trient, Italien;Via Petrarca, 4, Trento, Italy;0461/983189;;ristorante.petrarca@gmail.com;12.00 - 14.00/ 18.00 - 23.00;12:00 - 14:00 / 18:00 - 23:00 Uhr;12noon - 2pm/ 6pm - 11pm;sabato a pranzo e domenica;Samstag zu Mittag und Sonntag;Saturday at lunchtime and Sunday;a partire da 6 euro;ab 6 euro;from 6 euro;"Parcheggio; Ingresso con gradini; Servizi igienici dedicati;";"Parkplatz; Eingang mit Stufen; behindertengerechte Toiletten;";"Car park; entrance with steps; disabled toilets;";petrarca.jpg;;;;0;240;46.074838;11.123826;27/05/2014 12:00 AM +0100;1
ristorazione.1056;ristorazione;it;Trattoria;Gastwirtschaft;Trattoria (family restaurant);PIEDICASTELLO;Piazza Piedicastello 12, Trento;Piazza Piedicastello, 12, Trient, Italien;Piazza Piedicastello, 12, Trento, Italy;0461/230730;;;12.00 15.00/ 19.00 - 24.00;12.00 15:00/ 19:00 - 24.00 Uhr;12noon - 3pm/ 7pm - 12midnight;domenica;Sonntag;Sunday;20 - 25;20 - 25;20 - 25;"Servizi igienici dedicati;";"Behindertengerechte Toiletten;";"Disabled toilets;";piedicastello.jpg;;;;0;0;46.07099;11.112744;23/05/2014 12:00 AM +0100;1
ristorazione.1057;ristorazione;it;Pizzeria;Pizzeria;Pizzeria;PIZZA GRANDA;Via A. Manzoni 35, Trento;Via A. Manzoni, 35, Trient, Italien;Via A. Manzoni, 35, Trento, Italy;0461/236008;;pizza.granda@libero.it;12.00 - 15.00/ 18.00 - 24.00;12:00 - 15:00/ 18:00 - 24.00;12noon - 3pm/ 6pm - 12midnight;;;;;;;"Parcheggio; Rampa di accesso; Ingresso con gradini; Servizi igienici dedicati;";"Parkplatz; Zufahrtsrampe; Eingang mit Treppen; behindertengerechte Toiletten;";"Car-park; access ramp; entrance with steps; disabled toilets;";piazza_granda.jpg;;;;0;240;46.072873;11.12507;27/05/2014 12:00 AM +0100;1
ristorazione.1058;ristorazione;it;"Ristorante; Pizzeria";"Restaurant; Pizzeria";"Restaurant; Pizzeria";PRIMAVERA;Via Suffragio 92, Trento;Via Suffragio, 92, Trient, Italien;Via Suffragio, 92, Trento, Italy;0461/239840;;;12.00 - 14.00/ 18.30 - 23.00;12:00 - 14:00 / 18:30 - 23:00 Uhr;12noon - 2pm/ 6.30pm - 11pm;venerdì;Freitag;Friday;;;;"Rampa di accesso;";"Zufahrtsrampe;";"Access ramp;";primavera.jpg;;;;0;240;46.070745;11.124791;27/05/2014 12:00 AM +0100;1
ristorazione.1059;ristorazione;it;"Ristorante; Pizzeria; Bar";"Restaurant; Pizzeria; Bar";"Restaurant; Pizzeria; Bar";RENEE';Via Maccani 203, Trento;Via Maccani, 203, Trient, Italien;Via Maccani, 203, Trento, Italy;0461/823980;;ristoranterenee@libero.it;06.30 - 24.00;06.30 - 24.00 Uhr;6.30am - 12 midnight;sabato mattina e domenica;Samstag früh und Sonntag;Saturday morning and Sunday;cucina 15/30 pizza bibite 10;Küche 15/30 - Pizza Getränke 10;Restaurant 15/30, pizza and drinks 10;"Parcheggio; Rampa di accesso; Servizi igienici dedicati;";"Parkplatz, Zufahrtsrampe; behindertengerechte Toiletten;";"Car park; access ramp; disabled toilets;";renee.jpg;;;;0;180;46.093829;11.105541;23/05/2014 12:00 AM +0100;1
ristorazione.1060;ristorazione;it;"Ristorante; Pizzeria";Gastwirtschaft;Trattoria (family restaurant);DOLOMITI;Corso Buonarroti 101, Trento;Corso Buonarroti, 101, Trient, Italien;Corso Buonarroti, 101, Trento, Italy;0461/983059;;Danieldal-pai@hotmail.it;07.00 - 15.00/ 18.00 - 22.00;07:00 - 15:00 / 18:00 - 22:00 Uhr;7am - 3pm/ 6pm - 10pm;sabato pomeriggio e domenica;Samstag Nachmittag und Sonntag;Saturday afternoon and Sunday;11;11;11;"Rampa di accesso; Servizi igienici dedicati;";"Zufahrtsrampe; behindertengerechte Toiletten;";"Access ramp; disabled toilets;";DOLOMITI.jpg;;;;0;0;46.071042;11.116938;28/05/2014 12:00 AM +0100;1
ristorazione.1061;ristorazione;it;"Ristorante; Pizzeria";"Restaurant; Pizzeria";"Restaurant; Pizzeria";ROSA D'ORO;Piazza S. Maria Maggiore 21, Trento;Piazza S. Maria Maggiore, 21, Trient, Italien;Piazza S. Maria Maggiore, 21, Trento, Italy;0461/261792;http://www.rosadoro.net;info@rosadoro.net;12.00 - 14.00/ 19.00 - 24.00;12:00 - 14:00/ 19:00 - 24.00 Uhr;12noon - 2pm/ 7pm - 12 midnight;domenica;Sonntag;Sunday;pizza 10   cucina 10-20;Pizza 10 - Küche 10-20;pizza 10, restaurant 10-20;"Rampa di accesso; Ingresso con gradini; Servizi igienici dedicati;";"Zufahrtsrampe; Eingang mit Stufen; behindertengerechte Toiletten;";"Access ramp; entrance with steps; disabled toilets;";rosa_oro.jpg;;;;1;399;46.068482;11.11992;23/05/2014 12:00 AM +0100;1
ristorazione.1062;ristorazione;it;"Ristorante; Pizzeria";"Restaurant; Pizzeria";"Restaurant; Pizzeria";SAPORI MEDITERRANEI;Via R. da Sanseverino 39/4, Trento;Via R. da Sanseverino, 39/4, Trient, Italien;Via R. da Sanseverino, 39/4, Trento, Italy;0461/984360;http://www.saporimediterranei-trento.com;sapori.mediterranei@hotmail.it;12.00 - 14.30/ 19.00 - 23.30;12:00 - 14:30 / 19:00 - 23:30 Uhr;12noon - 2.30pm/ 7pm - 11.30pm;lunedì;Montag;Monday;20 - 35;20 - 35;20 - 35;"Parcheggio; Servizi igienici dedicati;";"Parkplatz; behindertengerechte Toiletten;";"Car park, disabled toilets;";sapori.jpg;;;;0;0;46.065043;11.114032;23/05/2014 12:00 AM +0100;1
ristorazione.1063;ristorazione;it;Specialità orientali;Orientalische Spezialitäten;Oriental specialities;SAPOROSO;Via dei Mille 1, Trento;Via dei Mille, 1, Trient, Italien;Via dei Mille, 1, Trento, Italy;0461/391118;;saporosomei@99.com;12.00 - 15.00/ 18.30 - 23.00;12:00 - 15:00 / 18:30 - 23:00 Uhr;12noon - 3pm/ 6.30pm - 11pm;;;;20;20;20;"Parcheggio; Ingresso con gradini;";"Parkplatz; Eingang mit Stufen;";"Car park; entrance with steps;";saporoso.jpg;;;;0;240;46.062988;11.127535;23/05/2014 12:00 AM +0100;1
ristorazione.1064;ristorazione;it;"Ristorante; Pizzeria";"Restaurant; Pizzeria";"Restaurant; Pizzeria";TARTUFO;Via Chiocchetti P. Emilio 42, Trento;Via Chiocchetti P. Emilio, 42, Trient, Italien;Via Chiocchetti P. Emilio, 42, Trento, Italy;0461/822233;;magnetesrl@gmail.com;11.30 - 14.30/ 18.30 - 22.30;11:30 - 14:30 / 18:30 - 22:30 Uhr;11.30am - 2.30pm/ 6.30pm - 10.30pm;domenica;Sonntag;Sunday;da 7 a 22;von 7 bis 22;from 7 to 22;"Parcheggio; Rampa di accesso; Servizi igienici dedicati;";"Parkplatz, Zufahrtsrampe; behindertengerechte Toiletten;";"Car park; access ramp; disabled toilets;";;;;;0;0;46.09406;11.118753;23/05/2014 12:00 AM +0100;1
ristorazione.1065;ristorazione;it;"Ristorante; Pizzeria";"Restaurant; Pizzeria";"Restaurant; Pizzeria";TETLEY'S;Via degli Orti 1, Trento;Via degli Orti, 1, Trient, Italien;Via degli Orti, 1, Trento, Italy;0461/233477;http://www.tetleyspub.it;info@tetleyspub.it;18.00 - 24.00 giovedì 06.00-14,00/ 17,00-24,00;18.00 - 24.00 Uhr - Donnerstag 06.00-14,00/ 17,00-24,00 Uhr;6pm - 12 midnight Thursday 6am - 2.pm/ 5pm - 12 midnight;domenica;Sonntag;Sunday;margherita 5;Margherita 5;margherita 5;"Parcheggio; Rampa di accesso; Servizi igienici dedicati;";"Parkplatz, Zufahrtsrampe; behindertengerechte Toiletten;";"Car park; access ramp; disabled toilets;";tetleys.jpg;;;;0;221;46.065742;11.121317;23/05/2014 12:00 AM +0100;1
ristorazione.1066;ristorazione;it;"Ristorante; Pizzeria";"Restaurant; Pizzeria";"Restaurant; Pizzeria";TRITTICO;Piazza Tridente 19, Trento;Piazza Tridente, 19, Trient, Italien;Piazza Tridente, 19, Trento, Italy;0461/822287;;luca.trittico@live.it;12.00 - 14.00/ 18.30 - 23.00;12:00 - 14:00/ 18:30 - 23:00 Uhr;12noon - 2pm/ 6.30pm - 11pm;domenica;Sonntag;Sunday;primi 7-8 secondi 9-15;erster Gang 7-8 - Hauptgang 9-15;first courses 7-8, main courses 9-15;"Parcheggio; Servizi igienici dedicati;";"Parkplatz; behindertengerechte Toiletten;";"Car park, disabled toilets;";trittico.jpg;;;;0;0;46.086504;11.119837;23/05/2014 12:00 AM +0100;1
ristorazione.1067;ristorazione;it;Ristorante;Restaurant;Restaurant;UNIVERSITA';Via Giovanni Prati 6, Trento;Via Giovanni Prati, 6, Trient, Italien;Via Giovanni Prati, 6, Trento, Italy;0461/236524;;baruniversita@alice.it;07.00 - 19.00;07:00 - 19:00 Uhr;7am - 7pm;sabato pomeriggio e domenica;Samstag Nachmittag und Sonntag;Saturday afternoon and Sunday;25 comprese bevande;25, Getränke inbegriffen;25 drinks included;"Parcheggio; Rampa di accesso; Servizi igienici dedicati;";"Parkplatz, Zufahrtsrampe; behindertengerechte Toiletten;";"Car park; access ramp; disabled toilets;";universita.jpg;;;;0;0;46.065858;11.119312;23/05/2014 12:00 AM +0100;1
ristorazione.1068;ristorazione;it;"Ristorante; Pizzeria";"Restaurant; Pizzeria";"Restaurant; Pizzeria";VERUSCHKA;Via Grazioli 140, Trento;Via Grazioli, 140, Trient, Italien;Via Grazioli, 140, Trento, Italy;0461/234158;http://www.pizzeriaversuschka.it;guerrinigiuseppe@yahoo.it;12.00 - 14.00/ 18.30 - 24.00;12:00 - 14:00/ 18:30 - 24.00 Uhr;12noon - 2pm/ 6.30pm - 12 midnight;domenica;Sonntag;Sunday;10 - 12;10 - 12;10 - 12;"Rampa di accesso; Servizi igienici dedicati;";"Zufahrtsrampe; behindertengerechte Toiletten;";"Access ramp; disabled toilets;";veruschka.jpg;;;;1;451;46.065046;11.134375;27/05/2014 12:00 AM +0100;1
ristorazione.1069;ristorazione;it;"Ristorante; Pizzeria; Bar";"Restaurant; Pizzeria; Bar";"Restaurant; Pizzeria; Bar";38;Via Maestri del Lavoro 12, Trento;Via Maestri del Lavoro, 12, Trient, Italien;Via Maestri del Lavoro, 12, Trento, Italy;0461/830523;;zicarisimona@hotmail.it;7,00-24,00;7,00-24,00 Uhr;7am - 12 midnight;domenica;Sonntag;Sunday;menù pizza 6, menù fisso 11;Pizza Menü 6 - Tagesmenü 11;pizza menu 6, set menu 11;"Parcheggio; Rampa di accesso; Servizi igienici dedicati;";"Parkplatz, Zufahrtsrampe; behindertengerechte Toiletten;";"Car park; access ramp; disabled toilets;";38_medium.jpg;;;;0;0;46.088174;11.109665;28/05/2014 12:00 AM +0100;1
ristorazione.1070;ristorazione;it;Ristorante brasiliano;Brasilianisches Restaurant;Brazilian Restaurant;CHURRASCARIA NOVOS BAIANOS;Via Ss Cosma e Damiano 66, Trento;Via Ss Cosma e Damiano, 66, Trient, Italien;Via Ss Cosma e Damiano, 66 , Trento, Italy;347/9475708;;daniloallmeida@hotmail.com;;;;lunedì;Montag;Monday;;;;;;;churrascaria.jpg;;;;0;178;46.075553;11.105626;27/05/2014 12:00 AM +0100;1
ristorazione.1071;ristorazione;it;"Ristorante; Pizzeria";"Restaurant; Pizzeria";"Restaurant; Pizzeria";MORDI E FUGGI;Via A. Degasperi 7/8, Trento;Via A. Degasperi, 7/8, Trient, Italien;Via A. Degasperi, 7/8, Trento, Italy;0461/910901;;mordiefuggi.p@libero.it;;;;domenica;Sonntag;Sunday;8;8;8;"Parcheggio; Servizi igienici dedicati;";"Parkplatz; behindertengerechte Toiletten;";"Car park, disabled toilets;";MORDI-E-FUGGI.jpg;;;;0;0;46.051977;11.122036;28/05/2014 12:00 AM +0100;1
ristorazione.1072;ristorazione;it;"Ristorante; Bar";"Restaurant; Bar";"Ristorante; Bar";HAPPY HOUR;Via Fratelli Perini 57, Trento;Via Fratelli Perini, 57, Trient, Italien;Via Fratelli Perini, 57, Trento, Italy;0461/392394;;happyhour@legalmail.it;10,30-23,00;10,30-23,00 Uhr;10.30am -11pm;domenica sera e lunedì;Sonntag Abend und Montag;Sunday evening and Monday;15 - 50;15 - 50;15 - 50;"Servizi igienici dedicati;";"Behindertengerechte Toiletten;";"Disabled toilets;";happy_hour.jpg;;;;0;240;46.060196;11.120518;27/05/2014 12:00 AM +0100;1
ristorazione.1073;ristorazione;it;Specialità orientali;Orientalische Spezialitäten;Oriental specialities;NUOVA ASIA;Via Prepositura 15, Trento;Via Prepositura, 15, Trient, Italien;Via Prepositura, 15, Trento, Italy;0461/983576;;;;;;;;;;;;;;;asia.jpg;;;;0;0;46.069066;11.118635;27/05/2014 12:00 AM +0100;1
ristorazione.1074;ristorazione;it;Specialità thailandese e cinese;Thailändische und chinesische Spezialitäten;Thai and Chinese specialities;WANG;Via Livio Marchetti 13, Trento;Via Livio Marchetti,13, Trient, Italien;Via Livio Marchetti, 13, Trento, Italy;0461/092176;;;11,00-14,30/18,00-23,30;11,00-14,30/18,00-23,30 Uhr;11am-2.30pm/6pm-11.30pm;;;;10 - 12;10 - 12;10 - 12;"Ingresso con gradini; Servizi igienici dedicati;";"Eingang mit Stufen; behindertengerechte Toiletten;";"Entrance with steps; disabled toilets;";wang.jpg;Cucina tipica thai-cinese con la possibilità di consegne a domicilio.;Typische China-Thai-Küche mit Hauslieferung;Typical Thai and Chinese cuisine with a home delivery service possible.;0;0;46.069321;11.126521;27/05/2014 12:00 AM +0100;1
ristorazione.1075;ristorazione;it;Specialità giapponese e cinese;Japanische und chinesische Spezialitäten;Japanese and Chinese specialities;FU YUANCHUN;Corso Tre Novembre 29, Trento;Corso Tre Novembre, 29, Trient, Italien;Corso Tre Novembre, 29 , Trento, Italy;0461/916318;http://www.ristorantegiapponesefuyuanchun.com;;;;;lunedì;Montag;Monday;;;;;;;fu.png;;;;3;320;46.061592;11.124708;27/05/2014 12:00 AM +0100;1
ristorazione.1076;ristorazione;it;"Ristorante; Pizzeria; Bar";"Restaurant; Pizzeria; Bar";"Restaurant; Pizzeria; Bar";LOTO;Via Gocciadoro 62, Trento;Via Gocciadoro, 62, Trient, Italien;Via Gocciadoro, 62, Trento, Italy;0461/917190;;lotosrl@yahoo.it;;;;lunedì;Montag;Monday;;;;;;;LOTO.jpg;;;;0;0;46.056049;11.131443;28/05/2014 12:00 AM +0100;1
ristorazione.1077;ristorazione;it;Ristorante;Restaurant;Restaurant;DA GUIDO (chiuso per ristrutturazione);Via Marchetti 9, Trento;Via Marchetti, 5, Trient, Italien;Via Marchetti, 5, Trento, Italy;0461/262418;http://www.osteriadaguido.com/il-ristorante;;12,00-14,30/19,00-23,00;12,00-14,30/19,00-23,00 Uhr;12noon-2.30pm/7pm-11pm;lunedì;Montag;Monday;;;;;;;da_guido.jpg;;;;0;0;46.069926;11.126508;27/05/2014 12:00 AM +0100;0
ristorazione.1078;ristorazione;it;Specialità giapponesi;Japanische Spezialitäten;Japanese specialities;SUSHI ZEN;Via Malpaga 4 , Trento;Via Malpaga, 4, Trient, Italien;Via Malpaga, 4 , Trento, Italy;0461/262109;http://ristorantesushizen.com;Sushizen@163.com;11,30-14,30/18,30-23,30;11,30-14,30/18,30-23,30 Uhr;11.30am-2.30pm/6.30pm-11.30pm;;;;25;25;25;"Rampa di accesso; Ingresso con gradini; Servizi igienici dedicati;";"Zufahrtsrampe; Eingang mit Stufen; behindertengerechte Toiletten;";"Access ramp; entrance with steps; disabled toilets;";sushi_zen.jpg;;;;0;0;46.068988;11.123404;27/05/2014 12:00 AM +0100;1
ristorazione.1079;ristorazione;it;"Pizzeria; Trattoria";"Pizzeria; Gastwirtschaft";"Pizzeria; Trattoria";LASTE;Via Laste 63, Trento;Via Laste, 63, Trient, Italien;Via Laste, 63, Trento, Italy;0461/231570;http://www.pizzerialaste.it;info@pizzerialaste.it;11,30-14,30/18,30-23,00;11,30-14,30/18,30-23,00 Uhr;11.30am - 2.30pm/6.30pm - 11pm;martedì;Dienstag;Tuesday;"8 - 9 (primi); 12,50 - 17 (secondi)";8-9 (erster Gang) - 12,50-17 (Hauptgang);8-9 (first courses),12.50-17 (main courses);"Parcheggio; Servizi igienici dedicati;";"Parkplatz; behindertengerechte Toiletten;";"Car park, disabled toilets;";laste.jpg;;;;0;195;46.07265;11.132816;27/05/2014 12:00 AM +0100;1
ristorazione.1080;ristorazione;it;"Ristorante; Pizzeria";"Restaurant; Pizzeria";"Restaurant; Pizzeria";4 STAGIONI;Via San Vito 36 , Trento;Via San Vito, 36, Trient, Italien;Via San Vito, 36 , Trento, Italy;0461/987031;http://www.quattrostagionisrl.it;gilbtolo@tin.it;12,00-14,00/18,30-23,00;12,00-14,00/18,30-23,00 Uhr;12 noon - 2pm/6.30pm - 11pm;lunedì;Montag;Monday;6,50 (pizza), 25 (ristorante);6,50 (Pizza), 25 (Restaurant);6.50 (pizza). 25 (restaurant);"Parcheggio; Servizi igienici dedicati;";"Parkplatz; behindertengerechte Toiletten;";"Car park, disabled toilets;";4_stagioni.jpg;Da oltre 20 anni il Sig. Gilberto Tolomei insieme alla moglie Rosa, gestisce il Ristorante Pizzeria 4 Stagioni situato a Cognola, in collina a due passi da Trento. Il locale offre una cucina classica con specialità regionali, la pasta rigorosamente all'uovo fatta in casa come pappardelle, tagliolini condite con sughi a base di verdure stagionali con menù  a tema. Un occhio di riguardo per il pesce, sempre fresco, e cucinato sapientemente dal socio Miori Albino.  Possibilità di organizzare cene d'affari o ricorrenze quali compleanni e comunioni.;Seit mehr als 20 Jahren leitet Gilberto Tolomei gemeinsam mit seiner Frau Rosa das Restaurant/Pizzeria 4 Stagioni in Cognola, einem kleinen, in den Hügeln gelegenen Ort ganz in der Nähe von Trient. Die Speisekarte des Lokals bietet eine traditionelle Küche mit regionalen Spezialitäten, ausschließlich hausgemachten Eiernudeln wie Pappardelle, Tagliolini mit saisonaler Gemüsesoße und Themenmenüs.  Hier serviert man auch jederzeit frischen Fisch, den der Miteigentümer Miori Albino mit geschickter Hand zubereitet.  Es besteht die Möglichkeit zur Organisation von Geschäftsessen oder Feierlichkeiten wie Geburtstagen und Kommunionen.;For over 20 years, Mr. Gilberto Tolomei with his wife Rosa have managed the Restaurant Pizzeria 4 Stagioni in Cognola, on the hills only a short distance from Trento. The restaurant offers a classic cuisine with regional specialities, strictly home-made egg pasta, such as pappardelle or tagliolini, seasoned with seasonal vegetable sauces. Themed menus. Special mention should be given to the fish dishes, always fresh and skilfully cooked by Albino Miori, a partner in the firm.  Business dinners and receptions for celebrating birthdays or communions can be organised.;1;480;46.075344;11.13788;23/05/2014 12:00 AM +0100;1
ristorazione.1081;ristorazione;it;"Ristorante; Pizzeria";"Restaurant; Pizzeria";"Restaurant; Pizzeria";AL GIARDINO;Strada della Valsugana 63, Trento;Strada della Valsugana, 63, Trient, Italien;Strada della Valsugana, 63, Trento, Italy;0461/232117;;laura2604@gmail.com;11,30-14,00/18,30-23,30;11,30-14,00/18,30-23,30 Uhr;11.30am - 2pm/6.30pm - 11.30pm;domenica;Sonntag;Sunday;;;;"Parcheggio; Rampa di accesso; Servizi igienici dedicati;";"Parkplatz, Zufahrtsrampe; Behindertengerechte Toiletten;";"Car park; access ramp; disabled toilets;";giardino.jpg;;;;0;0;46.069829;11.136573;27/05/2014 12:00 AM +0100;1
ristorazione.1082;ristorazione;it;Ristorante;Restaurant;Restaurant;VILLA MADRUZZO;Via Ponte Alto 26 , Trento;Via Ponte Alto, 26, Trient, Italien;Via Ponte Alto, 26 , Trento, Italy;0461/986220;http://www.villamadruzzo.it;info@villamadruzzo.it;12,30-14,00/19,30-22,00;12,30-14,00/19,30-22,00 Uhr;12.30pm - 2pm/7.30pm - 10pm;domenica;Sonntag;Sunday;30 - 35;30 - 35;30 - 35;"Parcheggio; Servizi igienici dedicati;";"Parkplatz; behindertengerechte Toiletten;";"Car park, disabled toilets;";madruzzo.jpg;Situata in favorevole posizione sulla collina di Trento, Villa Madruzzo offre ai propri clienti tutti i comfort di un moderno hotel a tre stelle, a cominciare dalla quiete e tranquillità di una residenza immersa nel verde. Tre sale da pranzo, collocate a pianterreno con apertura verso il secolare parco dellâ€™hotel, sono a disposizione degli ospiti. In cucina la scelta gastronomica è impostata a valorizzare ed esaltare la cura estrema di ogni preparazione sia essa tradizionale o tipica locale. Vengono utilizzati soltanto prodotti di sicura freschezza e qualità, secondo stagione e reperibilità di mercato. Interessante la proposta dei dessert.;Das in schöner Hügellage in Trient gelegene Retaurant Villa Madruzzo bietet seinen Gästen jeden Komfort eines modernen Drei-Sterne-Hotels - allem voran die Ruhe und Stille einer Unterkunft mitten im Grünen. Zur Verfügung der Gäste stehen drei Im Erdgeschoss befindliche Speisesäle, die auf den Hotelpark mit Jahrhunderte altem Baumbestand blicken. In der Hotelgastronomie setzt man darauf, die traditionelle oder typisch lokale Küche zu valorisieren und hervorzuheben. Dies bringt die ausschließliche Verwendung frischer, saisonaler und auf dem Markt erhältlicher Qualitätsprodukte mit sich. Darüber hinaus enthält die Karte eine Reihe an verlockenden Desserts.;Set in a favourable position on the hills above Trento, Villa Madruzzo offers its guests all the comforts of a modern three-star hotel - starting from the quiet and pleasant setting of the Villa immersed in lush surroundings. There are three restaurant rooms on the ground floor that look out onto the century-old gardens of the hotel. The culinary choice focuses on enhancing and highlighting the dedication applied to every dish, be it traditional or a local speciality. Only high quality fresh ingredients are used, according to seasonal and market availability. The choice of desserts is noteworthy.;0;314;46.072758;11.149191;27/05/2014 12:00 AM +0100;1
ristorazione.1083;ristorazione;it;Ristorante;Restaurant;Restaurant;CAMPEL (chiuso per ristrutturazione);Località Villamontagna, Trento;Località  Villamontagna, Trient, Italien;Località Villamontagna, Trento, Italy;0461/209070;;;9,30-1,00;;;(attualmente CHIUSO per ristrutturazione);;;15 - 20;15 - 20;15 - 20;"Parcheggio; Rampa di accesso;";;;;;;;0;0;46.090957;11.164123;27/05/2014 12:00 AM +0100;1
ristorazione.1084;ristorazione;it;"Pizzeria; Ristorante";"Pizzeria; Restaurant";"Pizzeria; Restaurant";AL VILLAGGIO;Località San Donà 31, Trento;Via San Donà, 31, Trient, Italien;Località San Donà, 31, Trento, Italy;0461/232048;;;;;;lunedì;Montag;Monday;;;;;;;villaggio.jpg;;;;0;0;46.072382;11.139597;27/05/2014 12:00 AM +0100;1
ristorazione.1085;ristorazione;it;"Ristorante; Pizzeria";"Restaurant; Pizzeria";"Restaurant; Pizzeria";BOSCO INCANTATO;Località Montevaccino 1, Trento;Località  Montevaccino, Trient, Italien;Località Montevaccino, Trento, Italy;0461/960826;;;;;;;;;;;;;;;bosco.jpg;;;;0;0;46.1096;11.140241;27/05/2014 12:00 AM +0100;1
ristorazione.1086;ristorazione;it;Agritur;Agritourismusbetrieb;Agritur (Farmhouse Inn);MASO BERGAMINI;Loc. Bergamini 3 – Cognola, Trento;Loc. Bergamini,3 Cognola, Trient, Italien;Loc. Bergamini,3 Cognola, Trento, Italy;0461/983079;http://www.masobergamini.com;masobergamini@tin.it;su prenotazione;auf Reservierung;open on booking;lunedì;Montag;Monday;25 - 35;25 - 35;25 - 35;"Parcheggio; Rampa di accesso; Servizi igienici dedicati;";"Parkplatz, Zufahrtsrampe; Behindertengerechte Toiletten;";"Car park; access ramp; disabled toilets;";Bergamini.jpg;;;;0;221;46.084587;11.142279;27/05/2014 12:00 AM +0100;1
ristorazione.1087;ristorazione;it;Ristorante;Restaurant;Restaurant;REBUFFO;Via alle Coste 12/A – Cognola, Trento;via alle Coste, 12, Trient, Italien;Via alle Coste, 12, Trento, Italy;0461/265932;http://www.rebuffo.eu;info@rebuffo.eu;12,00-14,00/18,00-24,00;12,00-14,00/18,00-24,00 Uhr;12 noon - 2pm/6pm - 12 midnight;mercoledì;Mittwoch;Wednesday;25 - 40;25 - 40;25 - 40;"Parcheggio;";"Parkplatz;";"Car park;";rebuffo.jpg;;;;0;146;46.079847;11.134781;27/05/2014 12:00 AM +0100;1
ristorazione.1088;ristorazione;it;Ristorante;Restaurant;Restaurant;MEDITERRANEO;Via Ciurletti 21, Trento;Via Ciurletti 21, Trient, Italien;Via Ciurletti 21, Trento, Italy;0461/209503;;;;;;lunedì;Montag;Monday;25 - 50;25 - 50;25 - 50;;;;mediterraneo.jpg;;;;0;0;46.08176;11.153933;27/05/2014 12:00 AM +0100;1
ristorazione.1089;ristorazione;it;"Ristorante; Pizzeria";"Restaurant; Pizzeria";"Restaurant; Pizzeria";AI CANOPI;Via ai Bolleri 12/6 – Martignano, Trento;Via ai Bolleri, 12/6, Trient, Italien;Via ai Bolleri, 12/6 – Martignano, Trento, Italy;0461/823663;;ai.canopi@yahoo.it;12,00-14,30/18,00-23,00;12,00-14,30/18,00-23,00 Uhr;12noon - 2.30pm /6pm - 11pm;;;;11;11;11;"Parcheggio; Servizi igienici dedicati;";"Parkplatz; behindertengerechte Toiletten;";"Car park, disabled toilets;";canopi.jpg;;;;0;240;46.093844;11.130435;23/05/2014 12:00 AM +0100;1
ristorazione.1090;ristorazione;it;"Trattoria; Bar";"Gastwirtschaft; Bar";"Trattoria (family restaurant); Bar";ALLA BARACCA;Via Galassa 12, Trento;Via Galassa, 12, Trient, Italien;Via Galassa, 12, Trento, Italy;0461/920049;http://www.Trattoriabaracca.it;info@Trattoriabaracca.it;12,00-14,00/19,30-22,00;12,00-14,00/19,30-22,00 Uhr;12noon - 2pm /7.30pm - 10pm;domenica;Sonntag;Sunday;"13 - 15 (pranzo); 15 - 30 (cena)";13-15 (Mittagessen), 15-30 (Abendessen);13-15 (lunch),15-30 (dinner);"Parcheggio; Rampa di accesso; Servizi igienici dedicati;";"Parkplatz, Zufahrtsrampe; behindertengerechte Toiletten;";"Car park; access ramp; disabled toilets;";baracca.jpg;;;;0;184;46.042557;11.140885;27/05/2014 12:00 AM +0100;1
ristorazione.1091;ristorazione;it;Trattoria;Gastwirtschaft;Trattoria (family restaurant);FURLANI;Via della Villa 26 – Villazzano, Trento;Via della Villa, 26, Trient, Italien;Via della Villa, 26, Trento, Italy;0461/920160;;;7,30-22,00;7,30-22,00 Uhr;7.30am -10pm;sabato sera e domenica;Samstag Abend und Sonntag;Saturday evening and Sunday;12/05/00;12/05/00;12/05/00;"Parcheggio;";"Parkplatz;";"Car park;";FURLANI.jpg;;;;0;0;46.047219;11.145004;28/05/2014 12:00 AM +0100;1
ristorazione.1092;ristorazione;it;"Ristorante; Pizzeria";"Restaurant; Pizzeria";"Restaurant; Pizzeria";LOCANDA LA CANONICA;Piazza Mons, Nicolini 4/5 – Villazzano, Trento;Piazza Mons, Nicolini, 4/5, Trient, Italien;Piazza Mons, Nicolini, 4/5, Trento, Italy;0461/392218;http://www.locandacanonicatrento.it;info@locandacanonicatrento.it;6,30-22,30;6,30-22,30 Uhr;6.30am -10.30pm;sempre aperto;immer geöffnet;always open;15;15;15;"Parcheggio; Rampa di accesso; Piattaforma elevatrice; Ingresso con gradini; Servizi igienici dedicati;";"Parkplatz, Zufahrtsrampe, Hebefläche; Eingang mit Stufen; behindertengerechte Toiletten;";"Car park; access ramp; platform lift; entrance with steps; disabled toilets;";canonica.jpg;"""Locanda La Canonica"" si trova in un antico palazzo in cui sono state ricavate diverse sale ristorante, a seguito della sua ristrutturazione, ognuna con un'atmosfera particolare che riporta alle antiche tradizioni contadine. Tutto il palazzo, oggi sotto tutela delle belle arti, ha mantenuto la sua struttura originaria e il suo carattere antico.";"Die ""Locanda La Canonica"" befindet sich in einem antiken Palazzo, in dem im Rahmen der Renovierungsarbeiten mehrere Speisesäle geschaffen wurden. Jedem Raum wurde eine besondere und auf die bäuerlichen Traditionen zurückgehende Atmosphäre verliehen. Der gesamte Palazzo steht heute unter Denkmalschutz und hat seine ursprüngliche Struktur und seinen antiken Charakter bewahrt.";"""Locanda La Canonica"" is in an old palazzo where, following its renovation, several restaurant rooms were created, each conveying a special atmosphere evoking old farm traditions. The whole palazzo, which is now a listed building, has maintained its original layout and its antique flair.";0;0;46.049184;11.145884;23/05/2014 12:00 AM +0100;1
ristorazione.1093;ristorazione;it;"Ristorante; Pizzeria; Bar";"Restaurant; Pizzeria; Bar";"Restaurant; Pizzeria; Bar";LA ROCCIA;Via Pianizza 4 – Villazzano,Trento;Via Pianizza, 4, Trient, Italien;Via Pianizza, 4, Trento, Italy;0461/390226;;ginomonsorno@alice.it;ristorante 12-14,15/18,30-22,30, pizzeria 12,00-14,30/18,00-23,30;Restaurant 12-14,15/18,30-22,30 Uhr, Pizzeria 12,00-14,30/18,00-23,30 Uhr;restaurant 12noon -2.15pm/6.30pm - 10.30pm pizzeria 12noon - 2.30pm/6pm - 11.30pm;sempre aperto;immer geöffnet;always open;;;;"Parcheggio; Servizi igienici dedicati;";"Parkplatz; behindertengerechte Toiletten;";"Car park, disabled toilets;";roccia.jpg;;;;0;183;46.017112;11.144833;27/05/2014 12:00 AM +0100;1
ristorazione.1094;ristorazione;it;"Agritur; ristorante";"Agritourismusbetrieb; Restaurant";"Agritur (farmhouse inn); restaurant";RIFUGIO BINDESI - PINO PRATI;Loc. Grotta 78, Trento;Loc. Grotta, 78, Trient, Italien;Loc. Grotta, 78, Trento, Italy;0461/923344;;l.zane@libero.it;Estivo: tutte le sere venerdì, sabato e domenica anche a pranzo - Invernale: da martedì sera in poi sabato e domenica a pranzo;"Sommer: jeden Freitag-, Samstag- und Sonntagabend; Sonntag auch zu Mittag - Winter: von Dienstag bis Freitag, Samstag und Sonntag zu Mittag";Summer: every evening, Friday, Saturday and Sunday at lunchtime as well - Winter: from Tuesday to Sunday evening , Saturday and Sunday at lunchtime as well;lunedì sera;Montag Abend;Monday evening;25;25;25;"Parcheggio; Rampa di accesso; Servizi igienici dedicati;";"Parkplatz, Zufahrtsrampe; behindertengerechte Toiletten;";"Car park; access ramp; disabled toilets;";bindesi.jpg;;;;0;240;46.040204;11.152076;23/05/2014 12:00 AM +0100;1
ristorazione.1095;ristorazione;it;"Ristorante; Pizzeria";"Restaurant; Pizzeria";"Restaurant; Pizzeria";ROSALPINA;Via Pianizza 23 – Villazzano, Trento;Via Pianizza, 25, Trient, Italien;Via Pianizza, 25, Trento, Italy;0461/920131;http://www.pizzeriarosalpina.it;mauro.piccoli@tin.it;18,00-24,00 (a pranzo solo su ordinazione);18.00-24.00 Uhr (Mittagstisch auf Bestellung);6pm to 12 midnight (at lunchtime open only on booking);;;;;;;"Parcheggio; Ascensore; Ingresso con gradini; Servizi igienici dedicati;";"Parkplatz; Aufzug; Eingang mit Stufen; behindertengerechte Toiletten;";"Car-park; lift; entrance with steps; disabled toilets;";rosalpina.jpg;;;;0;240;46.021582;11.149994;27/05/2014 12:00 AM +0100;1
ristorazione.1096;ristorazione;it;Agritur;Agritourismusbetrieb;Agritur (Farmhouse Inn);MASO SAN ROCCO;Loc. San Rocco 4, Trento;Loc. San Rocco, 4, Trient, Italien;Loc. San Rocco, 4, Trento, Italy;0461/922785;;masosanrocco@virgilio.it;11,00-15,00/18,00-23,00;11,00-15,00/18,00-23,00 Uhr;11am - 3pm/6pm - 11pm;lunedì;Montag;Monday;20 - 40;20 - 40;20 - 40;"Parcheggio; Rampa di accesso; Servizi igienici dedicati;";"Parkplatz, Zufahrtsrampe; behindertengerechte Toiletten;";"Car park; access ramp; disabled toilets;";rocco.jpg;;;;0;213;46.035943;11.145562;27/05/2014 12:00 AM +0100;1
ristorazione.1097;ristorazione;it;"Ristorante; Pizzeria";"Restaurant; Pizzeria";"Restaurant; Pizzeria";1923...IL DOPOLAVORO;Via delle Scuole 1 – Gardolo, Trento;Via delle Scuole, 1, Trient, Italien;Via delle Scuole, 1 – Gardolo, Trento, Italy;0461/990065;;ildopolavoro@yahoo.it;12,00-14,30/18,30-23,30;12,00-14,30/18,30-23,30 Uhr;12noon-2.30pm/6.30pm-11.30pm;lunedì;Montag;Monday;15 - 50;15 - 50;15 - 50;"Parcheggio;";"Parkplatz;";"Car park;";1923.jpg;;;;0;0;46.108291;11.110436;27/05/2014 12:00 AM +0100;1
ristorazione.1098;ristorazione;it;"Ristorante; Pizzeria";"Restaurant; Pizzeria";"Restaurant; Pizzeria";CAPITOL 2;Via Soprasasso 32/2, Trento;Via Soprasasso, 32/2, Trient, Italien;Via Soprasasso, 32/2, Trento, Italy;0461/991593;;pmatted@tin.it;11,30-14,30/19,00-22,30;11,30-14,30/19,00-22,30 Uhr;11.30am - 2.30pm/7pm - 10.30pm;domenica;Sonntag;Sunday;15;15;15;"Parcheggio; Rampa di accesso; Piattaforma elevatrice; Servizi igienici dedicati;";"Parkplatz; Zufahrtsrampe; Hebefläche; behindertengerechte Toiletten;";"Car-park; access ramp; platform lift; disabled toilets;";CAPITOL-2.jpg;;;;0;0;46.106134;11.108634;28/05/2014 12:00 AM +0100;1
ristorazione.1099;ristorazione;it;"Ristorante; Pizzeria";"Restaurant; Pizzeria";"Restaurant; Pizzeria";EL MERENDERO;Via Martino Aichner 21 – Gardolo, Trento;Via Martino Aichner, 21, Trient, Italien;Via Martino Aichner, 21, Trento, Italy;0461/990459;http://www.elmerendero.it;info@elmerendero.it;12,00-14,00/18,45-23,45;12,00-14,00/18,45-23,45 Uhr;12noon - 2pm/6.45pm - 11.45pm;martedì;Dienstag;Tuesday;;;;"Parcheggio;";"Parkplatz;";"Car park;";merendero.jpg;200 posti interni, 150 esterni, ampio parcheggio, specializzato con il pesce di mare, forno a legna per la pizza, cordialità e qualità ad un giusto prezzo.;"200 Innen- und 150 Außenplätze, großer Parkplatz, spezialisiert auf Seefisch, Holzofen für Pizza; Gastfreundschaft und Qualität zu einem guten Preis.";Seats 200 indoor, 150 outdoor, large car park. Specialised in sea fish dishes, wood oven for pizzas, quality and a friendly atmosphere at the right price.;3;294;46.102831;11.102711;27/05/2014 12:00 AM +0100;1
ristorazione.1100;ristorazione;it;"Ristorante; Pizzeria";"Restaurant; Pizzeria";"Restaurant; Pizzeria";OFFICINA GAMBRINUS;Via Alto Adige 164, Trento;Via Alto Adige, 164, Trient, Italien;Via Alto Adige, 164, Trento, Italy;0461/993261;http://www.officinagambrinus.com;andrea@officinagambrinus.com;Lunedì,martedì, mercoledì, giovedì 10.00 - 01.00 Venerdì 10.00 - 02.00 Sabato 17.00 - 02.00 Domenica 17.00 - 24.00;Montag, Dienstag, Mittwoch, Donnerstag 10.00 - 01.00 Uhr - Freitag 10.00 - 02.00 Uhr - Samstag 17.00 - 02.00 Uhr - Sonntag 17.00 - 24.00 Uhr;Monday, Tuesday, Wednesday, Thursday 10am - 1am, Friday 10am - 2am, Saturday 5pm - 2am, Sunday 5pm - 12 midnight;Domenica da giugno ad agosto;Sonntag von Juni bis August;Sunday from June to August;Pranzo da 6,00 a 10,00 - Cena da 10,00 a 25,00;Mittagstisch von 6.00 bis 10.00 - Abendessen von 10.00 bis 25.00;Lunch from 6.00 to 10.00 - Dinner from 10.00 to 25.00;"Parcheggio; Rampa di accesso; Servizi igienici dedicati;";"Parkplatz, Zufahrtsrampe; behindertengerechte Toiletten;";"Car park; access ramp; disabled toilets;";gambrinus.jpg;;;;0;0;46.127924;11.109231;23/05/2014 12:00 AM +0100;1
ristorazione.1101;ristorazione;it;Ristorante;Restaurant;Restaurant;PAGANELLA;Via Aeroporto 27/1, Trento;Via Aeroporto, 27/1, Trient, Italien;Via Aeroporto, 27/1, Trento, Italy;0461/990355;;ristorante.paganella@gmail.com;12,00-15,00;12,00-15,00 Uhr;12 noon-3pm;domenica;Sonntag;Sunday;7,50 - 12;7,50 - 12;7,50 - 12;"Parcheggio; Rampa di accesso; Servizi igienici dedicati;";"Parkplatz, Zufahrtsrampe; behindertengerechte Toiletten;";"Car park; access ramp; disabled toilets;";paganella.jpg;;;;0;0;46.108083;11.110071;28/05/2014 12:00 AM +0100;1
ristorazione.1102;ristorazione;it;"Trattoria; Pizzeria";"Gastwirtschaft; Pizzeria";"Trattoria (family restaurant); Pizzeria";BIANCOSPINO;Via Pont dei Vodi 39 – Spini di Gardolo, Trento;Via Al Pont dei Vodi, 39, Trient, Italien;Via Al Pont dei Vodi, 39, Trento, Italy;0461/1820422;htto://www.biancospino.info;info@biancospino.info;12,00-14.30/18,30-22,00;12,00-14,30/18,30-22,00 Uhr;12noon-2.30pm/6.30pm-10pm;domenica;Sonntag;Sunday;10 - 12;10 - 12;10 - 12;"Parcheggio; Rampa di accesso; Servizi igienici dedicati;";"Parkplatz, Zufahrtsrampe; behindertengerechte Toiletten;";"Car park; access ramp; disabled toilets;";biancospino.jpg;;;;0;0;46.12269;11.090995;28/05/2014 12:00 AM +0100;1
ristorazione.1103;ristorazione;it;"Ristorante; Pizzeria";"Restaurant; Pizzeria";"Restaurant; Pizzeria";AL CAVALIERE;Piazza G. Manci 14 – Povo, Trento;Piazza G. Manci, 14, Trient, Italien;Piazza G. Manci, 14 – Povo, Trento, Italy;0461/816125;;alcavalierepovo@yahoo.it;12,00-14,30/17,00-23,00;12,00-14,30/17,00-23,00 Uhr;12noon - 2.30pm/5pm - 11pm;sempre aperto;immer geöffnet;always open;12 - 25;12 - 25;12 - 25;"Parcheggio; Ascensore; Ingresso con gradini; Servizi igienici dedicati;";"Parkplatz; Aufzug; Eingang mit Stufen; behindertengerechte Toiletten;";"Car-park; lift; entrance with steps; disabled toilets;";cavaliere.jpg;;;;0;0;46.066118;11.154802;27/05/2014 12:00 AM +0100;1
ristorazione.1104;ristorazione;it;Trattoria;Gastwirtschaft;Trattoria (family restaurant);AL PAROL;Via Mesiano 40, Trento;Via Mesiano, 40, Trient, Italien;Via Mesiano, 40, Trento, Italy;0461/239951;;;12,00-14,00/19,00-22,00;12,00-14,00/19,00-22,00 Uhr;12noon - 2pm/7pm - 10pm;domenica;Sonntag;Sunday;25-30;20 - 25;20 - 25;"Parcheggio; Rampa di accesso;";"Parkplatz; Zufahrtsrampe;";"Car park; access ramp;";parol.jpg;;;;0;240;46.066785;11.140414;23/05/2014 12:00 AM +0100;1
ristorazione.1105;ristorazione;it;"Ristorante; Pizzeria; Bar";"Restaurant; Pizzeria; Bar";"Restaurant; Pizzeria; Bar";LA CAMPANELLA;Loc. Cimirlo 19 – Povo, Trento;Loc. Cimirlo, 19, Trient, Italien;Loc. Cimirlo, 19, Trento, Italy;0461/811210;http://www.ristorantelacampanella.it;samuel.grisenti@tin.it;Lunedì-Martedì-Giovedì 10.30 - 15.30 19.00 - 24.00 Venerdì-Sabato-Domenica 10.30 - 24.00;Montag, Dienstag, Donnerstag 10.30 - 15.30/19.00 - 24.00 Uhr - Freitag, Samstag, Sonntag 10.30 - 24.00 Uhr;Monday-Tuesday-Thursday 10.30am - 3.30pm / 7pm - 12midnight Friday-Saturday-Sunday 10.30am - 12midnight;mercoledì;Mittwoch;Wednesday;Antipasti 6,00 - 8,00 Primi 7,50 - 12,00 Secondi 9,00 - 20,00;10 - 18;10 - 18;"Parcheggio; Rampa di accesso; Servizi igienici dedicati;";"Parkplatz, Zufahrtsrampe; behindertengerechte Toiletten;";"Car park; access ramp; disabled toilets;";campanella.jpg;;;;0;150;46.067871;11.184293;23/05/2014 12:00 AM +0100;1
ristorazione.1106;ristorazione;it;Trattoria;Gastwirtschaft;Trattoria (family restaurant);LA CANTINA;Via Salè 8 - Povo, Trento;Via Salè, 8, Trient, Italien;Via Salè 8, Trento, Italy;0461/811709;;ristorantelacantina@alice.it;19,30-23,00;19,30-23,00 Uhr;7.30pm -11pm;domenica;Sonntag;Sunday;20 - 25;20 - 25;20 - 25;"Parcheggio; Piattaforma elevatrice; Ingresso con gradini; Servizi igienici dedicati;";"Parkplatz; Hebefläche; Eingang mit Stufen; behindertengerechte Toiletten;";"Car-park; platform lift; entrance with steps; disabled toilets;";cantina.jpg;;;;1;427;46.063405;11.152193;27/05/2014 12:00 AM +0100;1
ristorazione.1107;ristorazione;it;"Ristorante; Pizzeria";"Restaurant; Pizzeria";"Restaurant; Pizzeria";OROSTUBE;Via Sommarive 10 – Povo,Trento;Via Sommarive,10, Trient, Italien;Via Sommarive,10, Trento, Italy;0461/816073;http://www.orostube.it;info@orostube.it;12,00-14,00/18,30-23,00;12,00-14,00/18,30-23,00 Uhr;12 noon - 2pm/6.30pm - 11pm;Martedì, sabato e domenica a mezzogiorno;Dienstag, Samstag und Sonntag zu Mittag;Tuesday, Saturday and Sunday at lunchtime;10 - 18;10 - 18;10 - 18;"Parcheggio; Rampa di accesso; Servizi igienici dedicati;";"Parkplatz, Zufahrtsrampe; behindertengerechte Toiletten;";"Car park; access ramp; disabled toilets;";orostube.jpg;;;;0;240;46.064868;11.150506;27/05/2014 12:00 AM +0100;1
ristorazione.1108;ristorazione;it;"Ristorante; Pizzeria";"Restaurant; Pizzeria";"Restaurant; Pizzeria";CLARINA FILIPPONE;Via Anna Frank 7, Trento;Via  Anna Frank, 7, Trient, Italien;Via Anna Frank, 7, Trento, Italy;0461/924565;;;;;;lunedì;Montag;Monday;;;;;;;filippone.jpg;;;;0;0;46.050838;11.124874;27/05/2014 12:00 AM +0100;1
ristorazione.1109;ristorazione;it;"Ristorante; Pizzeria";"Restaurant; Pizzeria";"Restaurant; Pizzeria";LA TERRAZZA;Via Menguzzato 87, Trento;Via Menguzzato,87, Trient, Italien;Via Menguzzato,87, Trento, Italy;0461/390060;;;;;;martedì;Dienstag;Tuesday;;;;;;;LA-TERRAZZA.jpg;;;;0;0;46.040762;11.133414;28/05/2014 12:00 AM +0100;1
ristorazione.1110;ristorazione;it;Fast food;Fast food;Fast food;MCDONALD'S;Via Di Madonna Bianca 5, Trento;Via Di Madonna Bianca, 5, Trient, Italien;Via Di Madonna Bianca, 5, Trento, Italy;0461/390416;;mcdtn@libero.it;Luned'-gioved' e domenica 11.00 - 01.00 - venerdì 11.00 - 02.00 - sabato 11.00 - 03.00;Montag - Donnerstag und Sonntag 11.00 - 01.00 Uhr - Freitag 11.00 - 02.00 Uhr - Samstag 11.00 - 03.00 Uhr;Monday-Thursday and Sunday 11am - 1am,  Friday 11am - 2am, Saturday 11am - 3am;;;;;;;"Parcheggio; Rampa di accesso; Servizi igienici dedicati;";"Parkplatz, Zufahrtsrampe; behindertengerechte Toiletten;";"Car park; access ramp; disabled toilets;";donald.jpg;;;;0;0;46.032994;11.132217;27/05/2014 12:00 AM +0100;1
ristorazione.1111;ristorazione;it;"Ristorante; Pizzeria";"Restaurant; Pizzeria";"Restaurant; Pizzeria";ANTICA STELLA;Via G. Catoni 106 – Mattarello, Trento;Via G. Catoni, 106, Trient, Italien;Via G. Catoni, 106, Trento, Italy;0461/944401;http://www.anticastellatrento.cm;info@anticastellatrento.com;12,00-14,30/19,00-23,00;12,00-14,30/19,00-23,00 Uhr;12noon-2.30pm/7pm-11pm;giovedì;Donnerstag;Thursday;13;13;13;"Parcheggio; Rampa di accesso;";"Parkplatz; Zufahrtsrampe;";"Car park; access ramp;";antica_stella.jpg;;;;0;128;46.005517;11.127087;23/05/2014 12:00 AM +0100;1
ristorazione.1112;ristorazione;it;Ristorante;Restaurant;Restaurant;BARONE ROSSO;Via Lidorno 3 – Mattarello, Trento;Via Lidorno, 3, Trient, Italien;Via Lidorno, 3, Trento, Italy;0461/944999;http://www.aerhotel.it;aerhotel@aerhotel.it;12,00-14,00/18,30-22,00;12,00-14,00/18,30-22,00 Uhr;12noon - 2pm/6.30pm - 10pm;domenica sera;Sonntag Abend;Sunday evening;25;25;25;"Parcheggio; Rampa di accesso; Ascensore; Servizi igienici dedicati;";"Parkplatz; Zufahrtsrampe; Aufzug; behindertengerechte Toiletten;";"Car park; access ramp; lift; disabled toilets;";barone.jpg;;;;0;215;46.023027;11.127388;23/05/2014 12:00 AM +0100;1
ristorazione.1113;ristorazione;it;Ristorante;Restaurant;Restaurant;LOCANDA DEL BEL SORRISO;Loc. Novaline 42 – Mattarello,Trento;Loc. Novaline, 42, Trient, Italien;Loc. Novaline, 42, Trento, Italy;0461/942194;;fra_bert@yahoo.it;;;;lunedì;Montag;Monday;;;;;;;sorriso.jpg;;;;0;0;46.011807;11.140087;27/05/2014 12:00 AM +0100;1
ristorazione.1114;ristorazione;it;Ristorante;Restaurant;Restaurant;PINTA;Via Nazionale 41 – Mattarello, Trento;Via Nazionale, 41, Trient, Italien;Via Nazionale, 41, Trento, Italy;0461/944270;;pintasnc@yahoo.it;Mercoledì - sabato 9.00 - 14.30 - 17.00 - 24.00 - Lunedì 18.00 - 24.00 - Domenica 8.30 - 16.00;Mittwoch - Samstag 9.00 - 14.30 / 17.00 - 24.00 Uhr - Montag 18.00 - 24.00 Uhr - Sonntag 8.30 - 16.00 Uhr;Wednesday - Saturday 9am - 2.30pm / 5pm - 12midnight - Monday 6pm - 12midnight - Sunday 8.30am - 4pm;martedì;Dienstag;Tuesday;Primi 5,00 - 9,00 - Secondi 6,50 - 12,00 - Panini 3,50;erster Gang 5,00 - 9,00 Hauptgang 6,50 - 12,00 - Brötchen 3,50;First courses 5.00 - 9.00 - Main courses 6.50 - 12.00 - Sandwiches 3.50;"Parcheggio; Ingresso con gradini; Servizi igienici dedicati;";"Parkplatz; Eingang mit Stufen; behindertengerechte Toiletten;";"Car park; entrance with steps; disabled toilets;";pinta.jpg;;;;0;240;46.006475;11.127074;23/05/2014 12:00 AM +0100;1
ristorazione.1115;ristorazione;it;"Ristorante; Pizzeria";"Restaurant; Pizzeria";"Restaurant; Pizzeria";TORREFRANCA;Via Pomeranos 46 – Mattarello, Trento;Via Pomeranos,46, Trient, Italien;Via Pomeranos,46, Trento, Italy;0461/944511;http://www.ristorantetorrefranca.it;torrefranca@interfree.it;9,00-15,00/18,00-24,00;9,00-15,00/18,00-24,00 Uhr;9am - 3pm /6pm - 12midnight;lunedì;Montag;Monday;"20 - 25; Pizzeria 10 - 15";"20 - 25; Pizzeria 10 - 15";"20 - 25; Pizzeria 10 - 15";"Rampa di accesso; Ascensore; Servizi igienici dedicati;";"Zufahrtsrampe; Aufzug; behindertengerechte Toiletten;";"Access ramp; lift; disabled toilets;";torrefranca.jpg;;;;0;0;46.014295;11.132614;27/05/2014 12:00 AM +0100;1
ristorazione.1116;ristorazione;it;"Ristorante; Pizzeria";"Restaurant; Pizzeria";"Restaurant; Pizzeria";ACQUABLU;Via Herrsching 7 – Ravina, Trento;Via Herrsching, 7, Trient, Italien;Via Herrsching, 7 – Ravina, Trento, Italy;0461/917260;http://www.acquablusrl.it;acquablu.srl@alice.it;12,00-14,30/18,30-23,00;12,00-14,30/18,30-23,00 Uhr;12noon - 2.30pm/6.30pm - 11pm;domenica a pranzo, lunedì sera;Sonntag zu Mittag, Montag Abend;Sunday at lunchtime, Monday evening;25 - 30 (pasto completo);25 - 30 (komplettes Essen);25 - 30 (entire meal);"Parcheggio; Ascensore; Servizi igienici dedicati;";"Parkplatz, Aufzug, behindertengerechte Toiletten;";"Car park; lift; disabled toilets;";acquablu.jpeg;Il ristorante pizzeria Acquablu è un locale poliedrico adatto per qualsiasi situazione. Situato nel centro commerciale RAVINA SHOP a Ravina nella periferia a sud di Trento, offre un ambiente grande e accogliente, arredato in stile moderno. Dal lunedÃ¬ al venerdÃ¬ a pranzo è un self-service, adatto per chi non ha molto tempo a disposizione. La sera, il sabato e la domenica, invece, funziona come ristorante e pizzeria alla carta. Il ristorante offre sia menù  di carne sia menù  di pesce mentre la pizzeria propone oltre 70 tipi di pizze, per accontentare veramente tutti.;Das Restaurant/Pizzeria Acquablu ist ein vielseitiges Lokal, das sich für jede Gelegenheit eignet. Standort des großräumigen, gemütlichen und modern eingerichteten Restaurants ist das Einkaufszentrum RAVINA SHOP in Ravina, einem südlichen Randbezirk von Trient. Von Montag bis Freitag ist es zum Mittagstisch als Selfservice geöffnet und somit ideal für alle, die nicht viel Zeit haben. Abends, samstags und sonntags ist es ein normales Restaurant/Pizzeria mit Speisekarte. Das Restaurant bietet sowohl Fleisch- als auch Fischmenüs, während in der Pizzeria mehr als 70 Pizzasorten angeboten werden, damit jeder auf seinen Geschmack kommt.;The Pizzeria Restaurant Acquablu is a multifaceted restaurant suited to any occasion. It is situated the RAVINA SHOP shopping centre in Ravina, in the southern outskirts of Trento, and offers spacious welcoming interiors furnished in a contemporary style. From Monday to Friday at lunchtime it is self-service, ideal if you have little time available for your meal. In the evenings, on Saturday and Sunday, it is a à la carte restaurant and pizzeria. The restaurant offers both a fish-based menu and a meat-based menu while the pizzeria offers over 70 types of pizza, to truly satisfy everyone.;0;240;46.040516;11.111616;27/05/2014 12:00 AM +0100;1
ristorazione.1117;ristorazione;it;Ristorante;Restaurant;Restaurant;LOCANDA MARGON;Via Margone 15 – Ravina, Trento;Via Margone, 15, Trient, Italien;Via Margone, 15, Trento, Italy;0461/349401;http://www.locandamargon.it;contact@locandamargon.it;12,30-14,30/19,30-22,30;12,30-14,30/19,30-22,30 Uhr;12.30pm - 2.30pm/7.30pm - 10.30pm;domenica sera, martedì;Sonntag Abend, Dienstag;Sunday evening, Tuesday;28,00 in veranda e 70,00 in Salotto Gourmet;28.00 auf der Veranda und 70.00 im Gourmet-Saal.;28.00 in the veranda and 70.00 in the Gourmet lounge;"Parcheggio; Servizi igienici dedicati;";"Parkplatz; behindertengerechte Toiletten;";"Car park, disabled toilets;";margon.jpg;Terrazza naturale di rara bellezza sulla città di Trento, a 10 minuti dal centro, la Locanda Margon offre agli ospiti una duplice proposta: il Salotto Gourmet, per gli appassionati di cucina d'autore e la Veranda per chi non vuole rinunciare alla qualità anche in una cucina semplice.;Selten schöne Terrasse mit Blick auf die Stadt Trient. Die nur 10 Minuten vom Zentrum entfernte Locanda Margon bietet ihren Gästen zweierlei Alternativen: den Gourmet-Saal, in der topaktuelle Spitzenküche serviert wird, und die Veranda, auf der eine einfache Qualitätsküche geboten wird.;Set on a natural terrace of unparalleled beauty overlooking the town of Trento, 10 minutes from the town centre, Locanda Margon offers its guest two options: the Gourmet lounge for lovers of signature cuisine and the Veranda for those who do not want to forsake quality while choosing a simpler cuisine.;0;0;46.025471;11.107861;27/05/2014 12:00 AM +0100;1
ristorazione.1118;ristorazione;it;"Ristorante; Osteria tipica";"Restaurant; Typische Osteria";"Restaurant; Typical Osteria";MAS DELA FAM;Via Stella 18 – Ravina, Trento;Via Stella, 18, Trient, Italien;Via Stella, 18, Trento, Italy;0461/349114;http://www.masdelafam.it;info@masdelafam.it;11,00-24,00;11,00-24,00 Uhr;11am - 12midnight;aperto tutti i giorni;Täglich geöffnet;open every day;25 - 35 (bevande escluse);25 - 35 (außer Getränke);25 – 35 (drinks not included);"Parcheggio; Rampa di accesso; Ingresso con gradini; Servizi igienici dedicati;";"Parkplatz; Zufahrtsrampe; Eingang mit Treppen; behindertengerechte Toiletten;";"Car-park; access ramp; entrance with steps; disabled toilets;";fam.png;"Ristorante con cucina tipica trentina immerso nel verde delle vigne da cui si producono due vini ""rossorubio"" e ""trebolle"". Dislocato su tre piani offre la possibilità di pranzi e cene intime o di lavoro in locali riservati. L'ideale per banchetti nuziali e feste, disponiamo anche di ampia sala convegni. Vari giardini e terrazze per mangiare all'aperto.";"Restaurant mit typisch Trentiner Küche inmitten der Weinberge, aus denen die zwei Weine ""Rossorubio"" und ""Trebolle"" hervorgehen. Das über drei Etagen eingerichtete Restaurant bietet die Möglichkeit für intime Mittag- und Abendessen oder aber räumlich getrennte Arbeitsessen. Ideal für Hochzeitsbanketts und Feste. Darüber hinaus verfügen wir über einen großen Kongresssaal. Mehrere Gärten und Terrassen, die zum Essen im Freien einladen.";"Restaurant serving typical Trentino cuisine, surrounded by lush vineyards that produce two wines: ""rossorubio"" and ""trebolle"". Distributed over three different floors; private rooms are also available for intimate or business lunches and dinners. Excellent for wedding receptions or parties; we also have a large conference room. Several gardens and terraces are available for eating out in the open air.";0;213;46.02562;11.110844;27/05/2014 12:00 AM +0100;1
ristorazione.1119;ristorazione;it;Ristorante;Restaurant;Restaurant;SMORZA;Via dei Rimoni 26 – Romagnano, Trento;Via dei Rimoni, 26, Trient, Italien;Via dei Rimoni, 26, Trento, Italy;0461/349130;;smorza04@virgilio.it;Bar 07.00 - 23.00 Cucina 12.00 - 14.00 18.00 - 22.00 Pizza 12.00 - 14.00 18.00 - 23.00;Bar 07.00 - 23.00 Uhr - Küche 12.00 - 14.00 / 18.00 - 22.00 Uhr - Pizza 12.00 - 14.00 / 18.00 - 23.00 Uhr;Bar 7am - 11pm Restaurant 12noon - 2pm/6pm - 10pm Pizzeria 12noon - 2pm/6pm - 11pm;Martedì e sabato a mezzogiorno;Dienstag und Samstag zu Mittag;Tuesday and Saturday at lunchtime;4 - 16;4 - 16;4 - 16;"Parcheggio; Rampa di accesso; Servizi igienici dedicati;";"Parkplatz, Zufahrtsrampe; behindertengerechte Toiletten;";"Car park; access ramp; disabled toilets;";Smorza.jpg;Offre 45 anni di attività a conduzione famigliare, oltre 60 pizze per tutti i gusti e i suoi risotti del giorno accompagnati dal buon vino scelto da Adriano.;Seit 45 Jahren steht dieses Lokal unter familiärer Leitung. Mehr als 60 Pizzen, unter denen jeder die richtige findet, und leckere, von einem von Adriano ausgewählten Wein begleitete Risottos;Boasting 45 years of family-run business, it serves over 60 types of pizzas for all tastes as well as its risottos of the day, to be enjoyed with a good wine selected by Adriano.;0;215;46.017797;11.107411;27/05/2014 12:00 AM +0100;1
ristorazione.1120;ristorazione;it;Agritur;Agritourismusbetrieb;Agritur (Farmhouse Inn);MALGA BRIGOLINA;Via della Brigolina 6;Via della Brigolina, 6, Trient, Italien;Via della Brigolina, 6 , Trento, Italy;0461/947474, 348/5667141;;;9,00-22,00;9,00-22,00 Uhr;9am -10pm;lunedì;Montag;Monday;25;15 - 25;15 - 25;"Parcheggio; Rampa di accesso; Servizi igienici dedicati;";"Parkplatz, Zufahrtsrampe; Behindertengerechte Toiletten;";"Car park; access ramp; disabled toilets;";Brigolina.jpg;;;;0;213;46.065013;11.081404;28/05/2014 12:00 AM +0100;1
ristorazione.1121;ristorazione;it;"Ristorante; Pizzeria";"Restaurant; Pizzeria";"Restaurant; Pizzeria";CANDRIAI ALLA POSTA;Strada di Candriai 29, Trento;Strada di Candriai, 29, Trient, Italien;Strada di Candriai, 29, Trento, Italy;0461/947207;http://www.hotelcandriai.it;info@hotelcandriai.it;12.00 - 15.00 18.00 - 22.00;12.00 - 15:00 18:00 - 22.00 Uhr;12noon - 3pm 6pm - 10pm;lunedì;Montag;Monday;15 - 25;20 - 25;20 - 25;"Parcheggio; Rampa di accesso; Ascensore; Servizi igienici dedicati;";"Parkplatz; Zufahrtsrampe; Aufzug; behindertengerechte Toiletten;";"Car park; access ramp; lift; disabled toilets;";candriai_posta.jpg;;;;0;0;46.065132;11.08385;27/05/2014 16:00 AM +0100;1
ristorazione.1122;ristorazione;it;Agritur;Agritourismusbetrieb;Agritur (Farmhouse Inn);MALGA CANDRIAI;Strada di Candriai 4, Trento;Strada di Candriai, 4, Trient, Italien;Strada di Candriai, 4, Trento, Italy;0461/947526;http://www.malgacandriai.it;claudiaodorizzi@ikonart.it;Venerdì, sabato e domenica 12.00 - 14.00 19.30 - 22.00;Freitag, Samstag und Sonntag 12.00 - 14.00 / 19.30 - 22.00 Uhr;Friday, Saturday and Sunday 12noon - 2pm 7.30pm - 10pm;;;;20 - 25;20 - 25;20 - 25;"Parcheggio; Rampa di accesso; Servizi igienici dedicati;";"Parkplatz, Zufahrtsrampe; behindertengerechte Toiletten;";"Car park; access ramp; disabled toilets;";candriai.jpg;;;;0;0;46.067023;11.082069;27/05/2014 12:00 AM +0100;1
ristorazione.1123;ristorazione;it;Agritur;Agritourismusbetrieb;Agritur (Farmhouse Inn);BELLAVISTA;Via delle Canope 62 – Meano, Trento;Via delle Canope, 62, Trient, Italien;Via delle Canope, 62, Trento, Italy;340/0526939;;;Giovedì, venerdì, sabato 19.30 - 22.30 Domenica 12.00 - 14.30 19.30 - 22.30;Donnerstag, Freitag, Samstag 19.30 - 22.30 Uhr - Sonntag 12.00 - 14.30 19.30 - 22.30 Uhr;Thursday, Friday, Saturday 7.30pm - 10.30pm Sunday 12noon - 2.30pm 7.30pm - 10.30pm;Lunedì, martedì, mercoledì;Montag, Dienstag, Mittwoch;Monday, Tuesday, Wednesday;20 - 25;15 - 20;15 - 20;"Parcheggio; Rampa di accesso; Servizi igienici dedicati;";"Parkplatz, Zufahrtsrampe; Behindertengerechte Toiletten;";"Car park; access ramp; disabled toilets;";BELLAVISTA.jpg;Cucina casalinga, piatti tipici trentini.;Küche nach Hausfrauenart, typisch Trienter Gerichte.;Home cooking, Trentino specialities.;0;0;46.123403;11.130775;28/05/2014 12:00 AM +0100;1
ristorazione.1124;ristorazione;it;Agritur;Agritourismusbetrieb;Agritur (Farmhouse Inn);ALLE GORGHE;Strada alle Gorghe 17 – Vigo Meano, Trento;Strada alle Gorghe, 17, Trient, Italien;Strada alle Gorghe, 17, Trento, Italy;0461/448268;;agri_gorghe@hotmail.it;11.30 - 15.00 18.30 - 23.00;11:30 - 15:00 18:30 - 23:00 Uhr;11.30am - 3pm 6.30pm - 11pm;lunedì;Montag;Monday;25;15 - 25 euro;15 - 25 euro;"Parcheggio; Servizi igienici dedicati;";"Parkplatz; behindertengerechte Toiletten;";"Car park, disabled toilets;";gorghe.jpg;Locale tipico posto in collina ai margini del bosco con una splendida visuale sulla val d'Adige.;Typisches Lokal in Hügellage am Waldrand mit einem traumhaften Blick auf das Etschtal.;Typical local restaurant, on the hills above Trento and near the edge of the woods, with a splendid view over Val d'Adige.;0;0;46.131776;11.139382;23/05/2014 12:00 AM +0100;1
ristorazione.1125;ristorazione;it;Ristorante;Restaurant;Restaurant;OSTERIA SAN ROCCO;Via L. De Balzani 2 – Sardagna, Trento;Via L. De Balzani, 2, Trient, Italien;Via L. De Balzani, 2, Trento, Italy;0461/983917;http://www.osteriasanrocco.it;osteriasanrocco@alice.it;12.00 - 14.30 19.00 - 22.00;12:00 - 14:30 19:00 - 22:00 Uhr;12noon - 2.30pm 7pm - 10pm;domenica sera e lunedì;Sonntag Abend und Montag;Sunday evening and Monday;Antipasti da 9,00 a 14,50 - Primi da 7,00 a 12,00 - Secondi da 13,50 a 17,50 con contorno. Dessert da 3,50 a 6,00.;Vorspeise von  9,00 bis 14,50 - erster Gang von 7,00 bis 12,00 - Hauptgang von 13,50 bis 17,50 mit Beilage. Dessert von 3,50 bis 6,00.;Starters from 9.00 to 14.50 - First courses from 7.00 to 12.00 -  Main courses from 13.50 to 17.50 € incl. side dishes. Desserts from 3.50 to 6.00;"Rampa di accesso;";"Zufahrtsrampe;";"Access ramp;";osteria_rocco.jpg;Locale a gestione famigliare, prodotti genuini e semplicità, freschezza e materie prime ricercate. Pane, ravioli e dolci fatti in casa, specialità di pesce, ma non soloâ€¦Da noi troverete delle pietanze uniche!;"Lokal unter familiärer Leitung; ursprüngliche, frische und einfache Produkte, ausgesuchte Rohstoffe. Brot, hausgemachte Ravioli und Nachspeisen, Fischspezialitäten und viel mehr. Bei uns finden Sie einzigartige Gerichte!";Family-run restaurant, wholesome and simple products, fresh and selected ingredients. Home-made bread, ravioli and cakes, fish specialities but this is definitely not all. Here you will find truly unique dishes!;1;480;46.064477;11.096381;23/05/2014 12:00 AM +0100;1
ristorazione.1126;ristorazione;it;"Ristorante; Pizzeria; Osteria tipica";"Restaurant; Pizzeria; Typische Osteria";"Restaurant; Pizzeria; Typical Osteria";VELA;Via Ss Cosma e Damiano 21, Trento;Via Ss Cosma e Damiano, 21, Trient, Italien;Via Ss Cosma e Damiano, 21, Trento, Italy;0461/827200;http://www.hotelvela.com;info@hotelvela.com;12.00 - 14.00 18.30 - 22.30;12:00 - 14:00 18:30 - 22:30 Uhr;12noon - 2pm 6.30pm - 10.30pm;Sempre aperto, anche festività ;Immer geöffnet, auch an Feiertagen. ;Always open, even on bank holidays ;15 - 20;15 - 20;15 - 20;"Parcheggio; Rampa di accesso; Ascensore; Ingresso con gradini; Servizi igienici dedicati;";"Parkplatz: Zufahrtsrampe; Aufzug; Eingang mit Stufen; behindertengerechte Toiletten;";"Car-park; access ramp; lift; entrance with steps; disabled toilets;";vela.jpg;Hotel, ristorante, pizzeria. Gestione familiare. Ottima cucina regionale, degustazione pizza, grigliate misteâ€¦;Hotel, Restaurant, Pizzeria. Familiäre Leitung. Herausragende regionale Küche, Pizza-Verkostung, gemischte Grillplatten.;Hotel, restaurant, pizzeria. Family-run. Excellent regional cuisine, pizza tasting, mixed grilled meat platters.;0;0;46.082013;11.10284;27/05/2014 12:00 AM +0100;1
Ristorazione.1127;ristorazione;it;Ristorante;Restaurant;Restaurant;DUO RISTORANTE;Via Torre Vanga 14, Trento;Via Torre Vanga 14, Trient, Italien;Via Torre Verde, 14, Trento, Italy;0461/1594461;http://www.duoristorante.it;contact@duoristorante.it;11.30-15.00/18.00-23.00;11.30-15.00/18.00-23.00 Uhr;11.30am-3pm/6pm-11pm;sempre aperto;immer geöffnet;always open;35;15 - 25 euro;15 - 25 euro;"Rampa di accesso; Ingresso con gradini; Servizi igienici dedicati;";"Zufahrtsrampe; Eingang mit Stufen; behindertengerechte Toiletten;";"Access ramp; entrance with steps; disabled toilets;";duo.jpg;;;;0;0;46.07003;11.119255;23/05/2014 12:00 AM +0100;1
Ristorazione.1128;ristorazione;it;"Ristorante; Birreria";"Restaurant; Bierstube";"Ristorante; pub";FORST;Via Oss Mazzurana 38, Trento;Via Oss Mazzurana 38, Trient, Italien;Via Oss Mazzurana 38, Trento Italy;0461/235590;http://www.forst.it;fb.trento@forst.it;;;;sempre aperto;immer geöffnet;always open;15 - 25 euro;15 - 25 euro;15 - 25 euro;"Servizi igienici dedicati;";"Behindertengerechte Toiletten;";"Disabled toilets;";forst.jpg;;;;0;261;46.068835;11.122557;27/05/2014 12:00 AM +0100;1
ristorazione.1129;ristorazione;it;"Ristorante; Osteria tipica ";"Restaurant; Typische Osteria";"Restaurant; Typical Osteria";NEW FEELING;Piazza Garzetti, 14, Trento;Piazza Garzetti, 14, Trient, Italien;Piazza Garzetti, 14, Trento, Italy;0461/260373;;newfeeling@virgilio.it;Ristorante 12.00-14.30 Bar 09.00-02.00 ;Restaurant 12.00-14.30 Bar 09.00-02.00 ;Restaurant 12noon -2.30pm Bar 9am - 8pm ;domenica;Sonntag;Sunday;8 – 20 euro;8 – 20 euro;8 – 20 euro;"Ingresso con gradini; Presenza di parcheggi riservati nelle vicinanze; Rampa di accesso ";"Eingang mit Stufen; Zufahrtsrampe; ";"Access ramp; entrance with steps; ";Feeling.jpg;;;;0;0;46.065573;11.123308;28/05/2014 12:00 AM +0100;1
ristorazione.1130;ristorazione;it;"Ristorante; Pizzeria";Restaurant;Restaurant;STEAK HOUSE ANFITEATRO;Piazzetta Anfiteatro 10, Trento;Piazzetta Anfiteatro, 10, Trient, Italien;Piazzetta Anfiteatro, 10, Trento, Italy;0461/233389;;;;;;;;;;;;;;;steak.jpg;;;;0;0;46.069479;11.1249;27/05/2014 12:00 AM +0100;1
